{"type": "FeatureCollection", "features": [{"type": "Feature", "properties": {"type": "Climate Monitoring Station", "temp_trend": 0.025, "risk_level": "High"}, "geometry": {"type": "Point", "coordinates": [28.782617221223404, 1.193308548094467]}}, {"type": "Feature", "properties": {"type": "Climate Monitoring Station", "temp_trend": 0.026, "risk_level": "High"}, "geometry": {"type": "Point", "coordinates": [28.403194059461047, 1.4050494743086042]}}, {"type": "Feature", "properties": {"type": "Climate Monitoring Station", "temp_trend": 0.036, "risk_level": "High"}, "geometry": {"type": "Point", "coordinates": [28.242875961339415, 1.7762208600039764]}}, {"type": "Feature", "properties": {"type": "Climate Monitoring Station", "temp_trend": 0.038, "risk_level": "High"}, "geometry": {"type": "Point", "coordinates": [28.25862414452638, 1.6218793201871518]}}, {"type": "Feature", "properties": {"type": "Climate Monitoring Station", "temp_trend": 0.035, "risk_level": "Medium"}, "geometry": {"type": "Point", "coordinates": [28.154332034822904, 1.9184250059592576]}}, {"type": "Feature", "properties": {"type": "Climate Monitoring Station", "temp_trend": 0.036, "risk_level": "High"}, "geometry": {"type": "Point", "coordinates": [28.28903952472753, 1.2335727281881503]}}, {"type": "Feature", "properties": {"type": "Climate Monitoring Station", "temp_trend": 0.021, "risk_level": "High"}, "geometry": {"type": "Point", "coordinates": [28.806976487455717, 1.4590204251671692]}}, {"type": "Feature", "properties": {"type": "Climate Monitoring Station", "temp_trend": 0.039, "risk_level": "High"}, "geometry": {"type": "Point", "coordinates": [28.440370746305764, 1.707058399952694]}}, {"type": "Feature", "properties": {"type": "Climate Monitoring Station", "temp_trend": 0.027, "risk_level": "Medium"}, "geometry": {"type": "Point", "coordinates": [28.201892388066014, 1.5111511946480989]}}, {"type": "Feature", "properties": {"type": "Climate Monitoring Station", "temp_trend": 0.031, "risk_level": "High"}, "geometry": {"type": "Point", "coordinates": [28.966547981749088, 1.8344796649778297]}}]}