{"type": "FeatureCollection", "features": [{"type": "Feature", "properties": {"flood_risk": 89.2, "drought_risk": 10.8}, "geometry": {"type": "Polygon", "coordinates": [[[28.0, 1.0], [28.3, 1.0], [28.3, 1.3], [28.0, 1.3], [28.0, 1.0]]]}}, {"type": "Feature", "properties": {"flood_risk": 43.4, "drought_risk": 56.6}, "geometry": {"type": "Polygon", "coordinates": [[[28.0, 1.3], [28.3, 1.3], [28.3, 1.6], [28.0, 1.6], [28.0, 1.3]]]}}, {"type": "Feature", "properties": {"flood_risk": 91.0, "drought_risk": 9.0}, "geometry": {"type": "Polygon", "coordinates": [[[28.0, 1.6], [28.3, 1.6], [28.3, 1.9000000000000001], [28.0, 1.9000000000000001], [28.0, 1.6]]]}}, {"type": "Feature", "properties": {"flood_risk": 37.7, "drought_risk": 62.3}, "geometry": {"type": "Polygon", "coordinates": [[[28.0, 1.9000000000000001], [28.3, 1.9000000000000001], [28.3, 2.2], [28.0, 2.2], [28.0, 1.9000000000000001]]]}}, {"type": "Feature", "properties": {"flood_risk": 96.4, "drought_risk": 3.6}, "geometry": {"type": "Polygon", "coordinates": [[[28.0, 2.2], [28.3, 2.2], [28.3, 2.5], [28.0, 2.5], [28.0, 2.2]]]}}, {"type": "Feature", "properties": {"flood_risk": 8.9, "drought_risk": 91.1}, "geometry": {"type": "Polygon", "coordinates": [[[28.3, 1.0], [28.6, 1.0], [28.6, 1.3], [28.3, 1.3], [28.3, 1.0]]]}}, {"type": "Feature", "properties": {"flood_risk": 68.7, "drought_risk": 31.3}, "geometry": {"type": "Polygon", "coordinates": [[[28.3, 1.3], [28.6, 1.3], [28.6, 1.6], [28.3, 1.6], [28.3, 1.3]]]}}, {"type": "Feature", "properties": {"flood_risk": 49.4, "drought_risk": 50.6}, "geometry": {"type": "Polygon", "coordinates": [[[28.3, 1.6], [28.6, 1.6], [28.6, 1.9000000000000001], [28.3, 1.9000000000000001], [28.3, 1.6]]]}}, {"type": "Feature", "properties": {"flood_risk": 38.8, "drought_risk": 61.2}, "geometry": {"type": "Polygon", "coordinates": [[[28.3, 1.9000000000000001], [28.6, 1.9000000000000001], [28.6, 2.2], [28.3, 2.2], [28.3, 1.9000000000000001]]]}}, {"type": "Feature", "properties": {"flood_risk": 63.3, "drought_risk": 36.7}, "geometry": {"type": "Polygon", "coordinates": [[[28.3, 2.2], [28.6, 2.2], [28.6, 2.5], [28.3, 2.5], [28.3, 2.2]]]}}, {"type": "Feature", "properties": {"flood_risk": 70.4, "drought_risk": 29.6}, "geometry": {"type": "Polygon", "coordinates": [[[28.6, 1.0], [28.900000000000002, 1.0], [28.900000000000002, 1.3], [28.6, 1.3], [28.6, 1.0]]]}}, {"type": "Feature", "properties": {"flood_risk": 0.4, "drought_risk": 99.6}, "geometry": {"type": "Polygon", "coordinates": [[[28.6, 1.3], [28.900000000000002, 1.3], [28.900000000000002, 1.6], [28.6, 1.6], [28.6, 1.3]]]}}, {"type": "Feature", "properties": {"flood_risk": 16.7, "drought_risk": 83.3}, "geometry": {"type": "Polygon", "coordinates": [[[28.6, 1.6], [28.900000000000002, 1.6], [28.900000000000002, 1.9000000000000001], [28.6, 1.9000000000000001], [28.6, 1.6]]]}}, {"type": "Feature", "properties": {"flood_risk": 71.3, "drought_risk": 28.7}, "geometry": {"type": "Polygon", "coordinates": [[[28.6, 1.9000000000000001], [28.900000000000002, 1.9000000000000001], [28.900000000000002, 2.2], [28.6, 2.2], [28.6, 1.9000000000000001]]]}}, {"type": "Feature", "properties": {"flood_risk": 66.6, "drought_risk": 33.4}, "geometry": {"type": "Polygon", "coordinates": [[[28.6, 2.2], [28.900000000000002, 2.2], [28.900000000000002, 2.5], [28.6, 2.5], [28.6, 2.2]]]}}, {"type": "Feature", "properties": {"flood_risk": 96.6, "drought_risk": 3.4}, "geometry": {"type": "Polygon", "coordinates": [[[28.900000000000002, 1.0], [29.200000000000003, 1.0], [29.200000000000003, 1.3], [28.900000000000002, 1.3], [28.900000000000002, 1.0]]]}}, {"type": "Feature", "properties": {"flood_risk": 76.1, "drought_risk": 23.9}, "geometry": {"type": "Polygon", "coordinates": [[[28.900000000000002, 1.3], [29.200000000000003, 1.3], [29.200000000000003, 1.6], [28.900000000000002, 1.6], [28.900000000000002, 1.3]]]}}, {"type": "Feature", "properties": {"flood_risk": 95.1, "drought_risk": 4.9}, "geometry": {"type": "Polygon", "coordinates": [[[28.900000000000002, 1.6], [29.200000000000003, 1.6], [29.200000000000003, 1.9000000000000001], [28.900000000000002, 1.9000000000000001], [28.900000000000002, 1.6]]]}}, {"type": "Feature", "properties": {"flood_risk": 70.3, "drought_risk": 29.7}, "geometry": {"type": "Polygon", "coordinates": [[[28.900000000000002, 1.9000000000000001], [29.200000000000003, 1.9000000000000001], [29.200000000000003, 2.2], [28.900000000000002, 2.2], [28.900000000000002, 1.9000000000000001]]]}}, {"type": "Feature", "properties": {"flood_risk": 29.8, "drought_risk": 70.2}, "geometry": {"type": "Polygon", "coordinates": [[[28.900000000000002, 2.2], [29.200000000000003, 2.2], [29.200000000000003, 2.5], [28.900000000000002, 2.5], [28.900000000000002, 2.2]]]}}]}