{"type": "FeatureCollection", "features": [{"type": "Feature", "properties": {"name": "RFO 10km Buffer", "distance_km": 10}, "geometry": {"type": "Polygon", "coordinates": [[[27.90990990990991, 1.0], [27.90990990990991, 2.5], [27.91034371831782, 2.508830373002663], [27.91164096572944, 2.517575704686138], [27.913789158943043, 2.526151772725627], [27.916767609683667, 2.534475984897756], [27.920547633842492, 2.5424681744888287], [27.92509282772049, 2.5500513723441083], [27.93035941861597, 2.557152548122851], [27.936296686379592, 2.5637033136204095], [27.94284745187715, 2.5696405813840304], [27.949948627655893, 2.5749071722795085], [27.95753182551117, 2.5794523661575095], [27.965524015102243, 2.5832323903163323], [27.973848227274374, 2.586210841056956], [27.982424295313862, 2.588359034270561], [27.991169626997337, 2.58965628168218], [28.0, 2.59009009009009], [29.2, 2.59009009009009], [29.208830373002662, 2.58965628168218], [29.217575704686137, 2.588359034270561], [29.226151772725625, 2.586210841056956], [29.234475984897756, 2.5832323903163323], [29.242468174488828, 2.5794523661575095], [29.250051372344107, 2.5749071722795085], [29.25715254812285, 2.5696405813840304], [29.263703313620407, 2.5637033136204095], [29.269640581384028, 2.557152548122851], [29.27490717227951, 2.5500513723441083], [29.279452366157507, 2.5424681744888287], [29.283232390316332, 2.534475984897756], [29.286210841056956, 2.526151772725627], [29.28835903427056, 2.517575704686138], [29.28965628168218, 2.508830373002663], [29.29009009009009, 2.5], [29.29009009009009, 1.0], [29.28965628168218, 0.9911696269973369], [29.28835903427056, 0.9824242953138623], [29.286210841056956, 0.9738482272743728], [29.283232390316332, 0.9655240151022442], [29.279452366157507, 0.9575318255111713], [29.27490717227951, 0.9499486276558917], [29.269640581384028, 0.942847451877149], [29.263703313620407, 0.9362966863795903], [29.25715254812285, 0.9303594186159696], [29.250051372344107, 0.9250928277204914], [29.242468174488828, 0.9205476338424905], [29.234475984897756, 0.9167676096836679], [29.226151772725625, 0.9137891589430442], [29.217575704686137, 0.9116409657294386], [29.208830373002662, 0.9103437183178201], [29.2, 0.9099099099099099], [28.0, 0.9099099099099099], [27.991169626997337, 0.9103437183178201], [27.982424295313862, 0.9116409657294386], [27.973848227274374, 0.9137891589430442], [27.965524015102243, 0.9167676096836679], [27.95753182551117, 0.9205476338424905], [27.949948627655893, 0.9250928277204914], [27.94284745187715, 0.9303594186159696], [27.936296686379592, 0.9362966863795903], [27.93035941861597, 0.942847451877149], [27.92509282772049, 0.9499486276558917], [27.920547633842492, 0.9575318255111713], [27.916767609683667, 0.9655240151022442], [27.913789158943043, 0.9738482272743727], [27.91164096572944, 0.9824242953138623], [27.91034371831782, 0.9911696269973369], [27.90990990990991, 1.0]]]}}]}