{"type": "FeatureCollection", "features": [{"type": "Feature", "properties": {"name": "RFO 25km Buffer", "distance_km": 25}, "geometry": {"type": "Polygon", "coordinates": [[[27.774774774774773, 1.0], [27.774774774774773, 2.5], [27.77585929579455, 2.5220759325066577], [27.779102414323596, 2.5439392617153445], [27.78447289735761, 2.565379431814068], [27.791919024209168, 2.5861899622443896], [27.801369084606225, 2.6061704362220715], [27.81273206930123, 2.6251284308602707], [27.825898546539925, 2.642881370307127], [27.840741715948976, 2.6592582840510244], [27.857118629692874, 2.674101453460076], [27.874871569139728, 2.6872679306987717], [27.893829563777928, 2.6986309153937738], [27.91381003775561, 2.70808097579083], [27.93462056818593, 2.7155271026423895], [27.956060738284656, 2.7208975856764033], [27.97792406749334, 2.7241407042054497], [28.0, 2.725225225225225], [29.2, 2.725225225225225], [29.22207593250666, 2.7241407042054497], [29.243939261715344, 2.7208975856764033], [29.26537943181407, 2.7155271026423895], [29.28618996224439, 2.70808097579083], [29.30617043622207, 2.6986309153937738], [29.32512843086027, 2.6872679306987717], [29.342881370307126, 2.674101453460076], [29.359258284051023, 2.6592582840510244], [29.374101453460074, 2.642881370307127], [29.38726793069877, 2.6251284308602707], [29.398630915393774, 2.6061704362220715], [29.40808097579083, 2.5861899622443896], [29.41552710264239, 2.565379431814068], [29.420897585676403, 2.543939261715344], [29.42414070420545, 2.5220759325066577], [29.425225225225226, 2.5], [29.425225225225226, 1.0], [29.42414070420545, 0.9779240674933422], [29.420897585676403, 0.9560607382846558], [29.41552710264239, 0.9346205681859319], [29.40808097579083, 0.9138100377556104], [29.398630915393774, 0.8938295637779284], [29.38726793069877, 0.8748715691397293], [29.374101453460074, 0.8571186296928727], [29.359258284051023, 0.8407417159489758], [29.342881370307126, 0.8258985465399241], [29.32512843086027, 0.8127320693012285], [29.30617043622207, 0.8013690846062264], [29.28618996224439, 0.7919190242091696], [29.26537943181407, 0.7844728973576106], [29.243939261715344, 0.7791024143235967], [29.22207593250666, 0.7758592957945503], [29.2, 0.7747747747747747], [28.0, 0.7747747747747747], [27.97792406749334, 0.7758592957945503], [27.956060738284656, 0.7791024143235967], [27.93462056818593, 0.7844728973576106], [27.91381003775561, 0.7919190242091696], [27.893829563777928, 0.8013690846062264], [27.874871569139728, 0.8127320693012285], [27.857118629692874, 0.825898546539924], [27.840741715948976, 0.8407417159489757], [27.825898546539925, 0.8571186296928727], [27.81273206930123, 0.8748715691397293], [27.801369084606225, 0.8938295637779284], [27.791919024209168, 0.9138100377556104], [27.78447289735761, 0.9346205681859319], [27.779102414323596, 0.9560607382846558], [27.77585929579455, 0.9779240674933422], [27.774774774774773, 1.0]]]}}]}