{
    "type": "FeatureCollection",
    "features": [
        {
            "type": "Feature",
            "properties": {
                "title_id": "PE-3501",
                "permit_name": "Permit PE-3501",
                "operator": "Banro Corp",
                "mineral_type": "Cassiterite",
                "status": "Expired",
                "issue_date": "2006-01-01",
                "expiry_date": "2016-01-01",
                "province": "Ituri",
                "territory": "Mambasa",
                "latitude": 1.427984707446984,
                "longitude": 28.676604813752675,
                "source": "CAMI",
                "year": 2006,
                "distance_to_boundary_km": 75.17,
                "is_inside": true
            },
            "geometry": {
                "type": "Point",
                "coordinates": [
                    28.676604813752675,
                    1.427984707446984
                ]
            }
        },
        {
            "type": "Feature",
            "properties": {
                "title_id": "PE-6402",
                "permit_name": "Permit PE-6402",
                "operator": "Alphamin",
                "mineral_type": "Gold",
                "status": "Active",
                "issue_date": "2020-01-01",
                "expiry_date": "2030-01-01",
                "province": "Ituri",
                "territory": "Mambasa",
                "latitude": 1.6029720334533573,
                "longitude": 29.134339040316323,
                "source": "CAMI",
                "year": 2020,
                "distance_to_boundary_km": 67.44,
                "is_inside": true
            },
            "geometry": {
                "type": "Point",
                "coordinates": [
                    29.134339040316323,
                    1.6029720334533573
                ]
            }
        },
        {
            "type": "Feature",
            "properties": {
                "title_id": "PE-8957",
                "permit_name": "Permit PE-8957",
                "operator": "Banro Corp",
                "mineral_type": "Cassiterite",
                "status": "Active",
                "issue_date": "2022-01-01",
                "expiry_date": "2032-01-01",
                "province": "Ituri",
                "territory": "Mambasa",
                "latitude": 2.0103891017465267,
                "longitude": 29.112847279633932,
                "source": "CAMI",
                "year": 2022,
                "distance_to_boundary_km": 55.3,
                "is_inside": true
            },
            "geometry": {
                "type": "Point",
                "coordinates": [
                    29.112847279633932,
                    2.0103891017465267
                ]
            }
        },
        {
            "type": "Feature",
            "properties": {
                "title_id": "PE-9484",
                "permit_name": "Permit PE-9484",
                "operator": "Artisanal Cooperatives",
                "mineral_type": "Coltan",
                "status": "Inactive",
                "issue_date": "2013-01-01",
                "expiry_date": "2023-01-01",
                "province": "Ituri",
                "territory": "Mambasa",
                "latitude": 2.37517782804891,
                "longitude": 29.049042861361666,
                "source": "CAMI",
                "year": 2013,
                "distance_to_boundary_km": 21.77,
                "is_inside": true
            },
            "geometry": {
                "type": "Point",
                "coordinates": [
                    29.049042861361666,
                    2.37517782804891
                ]
            }
        },
        {
            "type": "Feature",
            "properties": {
                "title_id": "PE-4751",
                "permit_name": "Permit PE-4751",
                "operator": "Kibali Gold",
                "mineral_type": "Wolframite",
                "status": "Renewal",
                "issue_date": "2023-01-01",
                "expiry_date": "2033-01-01",
                "province": "Ituri",
                "territory": "Mambasa",
                "latitude": 1.2339786542895808,
                "longitude": 28.09879005891336,
                "source": "CAMI",
                "year": 2023,
                "distance_to_boundary_km": 28.24,
                "is_inside": true
            },
            "geometry": {
                "type": "Point",
                "coordinates": [
                    28.09879005891336,
                    1.2339786542895808
                ]
            }
        },
        {
            "type": "Feature",
            "properties": {
                "title_id": "PE-9618",
                "permit_name": "Permit PE-9618",
                "operator": "AngloGold Ashanti",
                "mineral_type": "Coltan",
                "status": "Active",
                "issue_date": "2003-01-01",
                "expiry_date": "2013-01-01",
                "province": "Ituri",
                "territory": "Mambasa",
                "latitude": 2.0165087587328188,
                "longitude": 29.155879178536797,
                "source": "CAMI",
                "year": 2003,
                "distance_to_boundary_km": 53.98,
                "is_inside": true
            },
            "geometry": {
                "type": "Point",
                "coordinates": [
                    29.155879178536797,
                    2.0165087587328188
                ]
            }
        },
        {
            "type": "Feature",
            "properties": {
                "title_id": "PE-2737",
                "permit_name": "Permit PE-2737",
                "operator": "AngloGold Ashanti",
                "mineral_type": "Cassiterite",
                "status": "Active",
                "issue_date": "2002-01-01",
                "expiry_date": "2012-01-01",
                "province": "Ituri",
                "territory": "Mambasa",
                "latitude": 2.2636336191031163,
                "longitude": 28.097222301960418,
                "source": "CAMI",
                "year": 2002,
                "distance_to_boundary_km": 28.42,
                "is_inside": true
            },
            "geometry": {
                "type": "Point",
                "coordinates": [
                    28.097222301960418,
                    2.2636336191031163
                ]
            }
        },
        {
            "type": "Feature",
            "properties": {
                "title_id": "PE-5502",
                "permit_name": "Permit PE-5502",
                "operator": "Artisanal Cooperatives",
                "mineral_type": "Gold",
                "status": "Expired",
                "issue_date": "2002-01-01",
                "expiry_date": "2012-01-01",
                "province": "Ituri",
                "territory": "Mambasa",
                "latitude": 2.4006884211825454,
                "longitude": 28.926366943316722,
                "source": "CAMI",
                "year": 2002,
                "distance_to_boundary_km": 32.34,
                "is_inside": true
            },
            "geometry": {
                "type": "Point",
                "coordinates": [
                    28.926366943316722,
                    2.4006884211825454
                ]
            }
        },
        {
            "type": "Feature",
            "properties": {
                "title_id": "PE-8563",
                "permit_name": "Permit PE-8563",
                "operator": "Kibali Gold",
                "mineral_type": "Diamond",
                "status": "Renewal",
                "issue_date": "2021-01-01",
                "expiry_date": "2031-01-01",
                "province": "Ituri",
                "territory": "Mambasa",
                "latitude": 2.2646135367226217,
                "longitude": 28.37485252397879,
                "source": "CAMI",
                "year": 2021,
                "distance_to_boundary_km": 49.19,
                "is_inside": true
            },
            "geometry": {
                "type": "Point",
                "coordinates": [
                    28.37485252397879,
                    2.2646135367226217
                ]
            }
        },
        {
            "type": "Feature",
            "properties": {
                "title_id": "PE-3653",
                "permit_name": "Permit PE-3653",
                "operator": "Alphamin",
                "mineral_type": "Gold",
                "status": "Expired",
                "issue_date": "2008-01-01",
                "expiry_date": "2018-01-01",
                "province": "Ituri",
                "territory": "Mambasa",
                "latitude": 1.8409665536641797,
                "longitude": 29.027457365538197,
                "source": "CAMI",
                "year": 2008,
                "distance_to_boundary_km": 75.75,
                "is_inside": true
            },
            "geometry": {
                "type": "Point",
                "coordinates": [
                    29.027457365538197,
                    1.8409665536641797
                ]
            }
        },
        {
            "type": "Feature",
            "properties": {
                "title_id": "PE-9444",
                "permit_name": "Permit PE-9444",
                "operator": "AngloGold Ashanti",
                "mineral_type": "Gold",
                "status": "Renewal",
                "issue_date": "2000-01-01",
                "expiry_date": "2010-01-01",
                "province": "Ituri",
                "territory": "Mambasa",
                "latitude": 1.9160114539999604,
                "longitude": 28.65759543733864,
                "source": "CAMI",
                "year": 2000,
                "distance_to_boundary_km": 88.59,
                "is_inside": true
            },
            "geometry": {
                "type": "Point",
                "coordinates": [
                    28.65759543733864,
                    1.9160114539999604
                ]
            }
        },
        {
            "type": "Feature",
            "properties": {
                "title_id": "PE-8236",
                "permit_name": "Permit PE-8236",
                "operator": "Kibali Gold",
                "mineral_type": "Gold",
                "status": "Active",
                "issue_date": "2020-01-01",
                "expiry_date": "2030-01-01",
                "province": "Ituri",
                "territory": "Mambasa",
                "latitude": 2.470541213897844,
                "longitude": 28.107939985424103,
                "source": "CAMI",
                "year": 2020,
                "distance_to_boundary_km": 12.43,
                "is_inside": true
            },
            "geometry": {
                "type": "Point",
                "coordinates": [
                    28.107939985424103,
                    2.470541213897844
                ]
            }
        },
        {
            "type": "Feature",
            "properties": {
                "title_id": "PE-2361",
                "permit_name": "Permit PE-2361",
                "operator": "AngloGold Ashanti",
                "mineral_type": "Cassiterite",
                "status": "Inactive",
                "issue_date": "2016-01-01",
                "expiry_date": "2026-01-01",
                "province": "Ituri",
                "territory": "Mambasa",
                "latitude": 1.4015247089909098,
                "longitude": 28.929068597654997,
                "source": "CAMI",
                "year": 2016,
                "distance_to_boundary_km": 53.86,
                "is_inside": true
            },
            "geometry": {
                "type": "Point",
                "coordinates": [
                    28.929068597654997,
                    1.4015247089909098
                ]
            }
        },
        {
            "type": "Feature",
            "properties": {
                "site_id": "IPIS-28778",
                "site_name": "Site IPIS-28778",
                "commodity": "Wolframite",
                "impact_type": "Mercury Pollution",
                "impact_score": 3,
                "armed_group": "None",
                "latitude": 2.279109626083142,
                "longitude": 28.833257194013616,
                "year": 2010,
                "source": "IPIS",
                "distance_to_boundary_km": 47.58,
                "is_inside": true
            },
            "geometry": {
                "type": "Point",
                "coordinates": [
                    28.833257194013616,
                    2.279109626083142
                ]
            }
        },
        {
            "type": "Feature",
            "properties": {
                "site_id": "IPIS-18362",
                "site_name": "Site IPIS-18362",
                "commodity": "Wolframite",
                "impact_type": "Child Labor",
                "impact_score": 10,
                "armed_group": "ADF",
                "latitude": 1.5351276605495014,
                "longitude": 28.693509348244486,
                "year": 2015,
                "source": "IPIS",
                "distance_to_boundary_km": 81.92,
                "is_inside": true
            },
            "geometry": {
                "type": "Point",
                "coordinates": [
                    28.693509348244486,
                    1.5351276605495014
                ]
            }
        },
        {
            "type": "Feature",
            "properties": {
                "site_id": "IPIS-86450",
                "site_name": "Site IPIS-86450",
                "commodity": "Coltan",
                "impact_type": "Armed Presence",
                "impact_score": 4,
                "armed_group": "Mai-Mai",
                "latitude": 1.1268361455859726,
                "longitude": 28.519452935257117,
                "year": 2016,
                "source": "IPIS",
                "distance_to_boundary_km": 59.45,
                "is_inside": true
            },
            "geometry": {
                "type": "Point",
                "coordinates": [
                    28.519452935257117,
                    1.1268361455859726
                ]
            }
        },
        {
            "type": "Feature",
            "properties": {
                "site_id": "IPIS-83872",
                "site_name": "Site IPIS-83872",
                "commodity": "Wolframite",
                "impact_type": "Mercury Pollution",
                "impact_score": 8,
                "armed_group": "Local Militia",
                "latitude": 1.0531972063156254,
                "longitude": 28.068478538640573,
                "year": 2015,
                "source": "IPIS",
                "distance_to_boundary_km": 9.64,
                "is_inside": true
            },
            "geometry": {
                "type": "Point",
                "coordinates": [
                    28.068478538640573,
                    1.0531972063156254
                ]
            }
        },
        {
            "type": "Feature",
            "properties": {
                "site_id": "IPIS-37148",
                "site_name": "Site IPIS-37148",
                "commodity": "Diamond",
                "impact_type": "Deforestation",
                "impact_score": 9,
                "armed_group": "Mai-Mai",
                "latitude": 1.7163784042316226,
                "longitude": 28.436763262460662,
                "year": 2006,
                "source": "IPIS",
                "distance_to_boundary_km": 93.29,
                "is_inside": true
            },
            "geometry": {
                "type": "Point",
                "coordinates": [
                    28.436763262460662,
                    1.7163784042316226
                ]
            }
        },
        {
            "type": "Feature",
            "properties": {
                "site_id": "IPIS-73324",
                "site_name": "Site IPIS-73324",
                "commodity": "Diamond",
                "impact_type": "Mercury Pollution",
                "impact_score": 5,
                "armed_group": "None",
                "latitude": 1.909962398881229,
                "longitude": 28.054535076944287,
                "year": 2010,
                "source": "IPIS",
                "distance_to_boundary_km": 65.89,
                "is_inside": true
            },
            "geometry": {
                "type": "Point",
                "coordinates": [
                    28.054535076944287,
                    1.909962398881229
                ]
            }
        },
        {
            "type": "Feature",
            "properties": {
                "site_id": "IPIS-96658",
                "site_name": "Site IPIS-96658",
                "commodity": "Cassiterite",
                "impact_type": "Deforestation",
                "impact_score": 7,
                "armed_group": "Mai-Mai",
                "latitude": 2.3014158677929415,
                "longitude": 28.881928952406337,
                "year": 2015,
                "source": "IPIS",
                "distance_to_boundary_km": 41.67,
                "is_inside": true
            },
            "geometry": {
                "type": "Point",
                "coordinates": [
                    28.881928952406337,
                    2.3014158677929415
                ]
            }
        },
        {
            "type": "Feature",
            "properties": {
                "site_id": "IPIS-66732",
                "site_name": "Site IPIS-66732",
                "commodity": "Diamond",
                "impact_type": "Deforestation",
                "impact_score": 5,
                "armed_group": "ADF",
                "latitude": 1.0663781166227992,
                "longitude": 29.145493932717027,
                "year": 2014,
                "source": "IPIS",
                "distance_to_boundary_km": 9.55,
                "is_inside": true
            },
            "geometry": {
                "type": "Point",
                "coordinates": [
                    29.145493932717027,
                    1.0663781166227992
                ]
            }
        },
        {
            "type": "Feature",
            "properties": {
                "site_id": "IPIS-49304",
                "site_name": "Site IPIS-49304",
                "commodity": "Wolframite",
                "impact_type": "Child Labor",
                "impact_score": 2,
                "armed_group": "Mai-Mai",
                "latitude": 1.9308057800648968,
                "longitude": 29.0546803163415,
                "year": 2022,
                "source": "IPIS",
                "distance_to_boundary_km": 65.32,
                "is_inside": true
            },
            "geometry": {
                "type": "Point",
                "coordinates": [
                    29.0546803163415,
                    1.9308057800648968
                ]
            }
        },
        {
            "type": "Feature",
            "properties": {
                "site_id": "IPIS-34794",
                "site_name": "Site IPIS-34794",
                "commodity": "Wolframite",
                "impact_type": "Armed Presence",
                "impact_score": 10,
                "armed_group": "Local Militia",
                "latitude": 2.1699070433138288,
                "longitude": 28.545843461054798,
                "year": 2006,
                "source": "IPIS",
                "distance_to_boundary_km": 70.89,
                "is_inside": true
            },
            "geometry": {
                "type": "Point",
                "coordinates": [
                    28.545843461054798,
                    2.1699070433138288
                ]
            }
        },
        {
            "type": "Feature",
            "properties": {
                "site_id": "IPIS-63801",
                "site_name": "Site IPIS-63801",
                "commodity": "Cassiterite",
                "impact_type": "Mercury Pollution",
                "impact_score": 1,
                "armed_group": "None",
                "latitude": 1.2751489090650339,
                "longitude": 28.590380061947112,
                "year": 2000,
                "source": "IPIS",
                "distance_to_boundary_km": 72.41,
                "is_inside": true
            },
            "geometry": {
                "type": "Point",
                "coordinates": [
                    28.590380061947112,
                    1.2751489090650339
                ]
            }
        },
        {
            "type": "Feature",
            "properties": {
                "site_id": "IPIS-56408",
                "site_name": "Site IPIS-56408",
                "commodity": "Gold",
                "impact_type": "Mercury Pollution",
                "impact_score": 1,
                "armed_group": "ADF",
                "latitude": 1.0277909422807203,
                "longitude": 29.178881310439532,
                "year": 2012,
                "source": "IPIS",
                "distance_to_boundary_km": 3.88,
                "is_inside": true
            },
            "geometry": {
                "type": "Point",
                "coordinates": [
                    29.178881310439532,
                    1.0277909422807203
                ]
            }
        },
        {
            "type": "Feature",
            "properties": {
                "site_id": "IPIS-40980",
                "site_name": "Site IPIS-40980",
                "commodity": "Gold",
                "impact_type": "Mercury Pollution",
                "impact_score": 4,
                "armed_group": "ADF",
                "latitude": 1.9579393746299973,
                "longitude": 28.89899331623607,
                "year": 2024,
                "source": "IPIS",
                "distance_to_boundary_km": 68.93,
                "is_inside": true
            },
            "geometry": {
                "type": "Point",
                "coordinates": [
                    28.89899331623607,
                    1.9579393746299973
                ]
            }
        },
        {
            "type": "Feature",
            "properties": {
                "site_id": "IPIS-36643",
                "site_name": "Site IPIS-36643",
                "commodity": "Wolframite",
                "impact_type": "Deforestation",
                "impact_score": 4,
                "armed_group": "None",
                "latitude": 2.2724639870089263,
                "longitude": 28.505148244682285,
                "year": 2007,
                "source": "IPIS",
                "distance_to_boundary_km": 61.56,
                "is_inside": true
            },
            "geometry": {
                "type": "Point",
                "coordinates": [
                    28.505148244682285,
                    2.2724639870089263
                ]
            }
        },
        {
            "type": "Feature",
            "properties": {
                "site_id": "IPIS-83643",
                "site_name": "Site IPIS-83643",
                "commodity": "Diamond",
                "impact_type": "Armed Presence",
                "impact_score": 2,
                "armed_group": "Local Militia",
                "latitude": 1.6392392070933846,
                "longitude": 28.205108741695604,
                "year": 2008,
                "source": "IPIS",
                "distance_to_boundary_km": 74.65,
                "is_inside": true
            },
            "geometry": {
                "type": "Point",
                "coordinates": [
                    28.205108741695604,
                    1.6392392070933846
                ]
            }
        },
        {
            "type": "Feature",
            "properties": {
                "site_id": "IPIS-14181",
                "site_name": "Site IPIS-14181",
                "commodity": "Wolframite",
                "impact_type": "Child Labor",
                "impact_score": 7,
                "armed_group": "None",
                "latitude": 1.6156129949580382,
                "longitude": 28.84383766580893,
                "year": 2010,
                "source": "IPIS",
                "distance_to_boundary_km": 79.08,
                "is_inside": true
            },
            "geometry": {
                "type": "Point",
                "coordinates": [
                    28.84383766580893,
                    1.6156129949580382
                ]
            }
        },
        {
            "type": "Feature",
            "properties": {
                "site_id": "IPIS-66249",
                "site_name": "Site IPIS-66249",
                "commodity": "Diamond",
                "impact_type": "Mercury Pollution",
                "impact_score": 8,
                "armed_group": "Local Militia",
                "latitude": 1.1968083600268427,
                "longitude": 29.085311462035705,
                "year": 2017,
                "source": "IPIS",
                "distance_to_boundary_km": 25.33,
                "is_inside": true
            },
            "geometry": {
                "type": "Point",
                "coordinates": [
                    29.085311462035705,
                    1.1968083600268427
                ]
            }
        },
        {
            "type": "Feature",
            "properties": {
                "site_id": "IPIS-10878",
                "site_name": "Site IPIS-10878",
                "commodity": "Gold",
                "impact_type": "Armed Presence",
                "impact_score": 1,
                "armed_group": "None",
                "latitude": 2.2363790675970217,
                "longitude": 28.64444764120109,
                "year": 2005,
                "source": "IPIS",
                "distance_to_boundary_km": 68.33,
                "is_inside": true
            },
            "geometry": {
                "type": "Point",
                "coordinates": [
                    28.64444764120109,
                    2.2363790675970217
                ]
            }
        },
        {
            "type": "Feature",
            "properties": {
                "site_id": "IPIS-96899",
                "site_name": "Site IPIS-96899",
                "commodity": "Cassiterite",
                "impact_type": "Deforestation",
                "impact_score": 1,
                "armed_group": "Local Militia",
                "latitude": 1.1662522140484142,
                "longitude": 29.13183872633913,
                "year": 2019,
                "source": "IPIS",
                "distance_to_boundary_km": 19.98,
                "is_inside": true
            },
            "geometry": {
                "type": "Point",
                "coordinates": [
                    29.13183872633913,
                    1.1662522140484142
                ]
            }
        },
        {
            "type": "Feature",
            "properties": {
                "site_id": "IPIS-14436",
                "site_name": "Site IPIS-14436",
                "commodity": "Coltan",
                "impact_type": "Mercury Pollution",
                "impact_score": 2,
                "armed_group": "None",
                "latitude": 1.153992205792876,
                "longitude": 28.28323624020109,
                "year": 2001,
                "source": "IPIS",
                "distance_to_boundary_km": 35.84,
                "is_inside": true
            },
            "geometry": {
                "type": "Point",
                "coordinates": [
                    28.28323624020109,
                    1.153992205792876
                ]
            }
        },
        {
            "type": "Feature",
            "properties": {
                "site_id": "IPIS-40551",
                "site_name": "Site IPIS-40551",
                "commodity": "Cassiterite",
                "impact_type": "Mercury Pollution",
                "impact_score": 8,
                "armed_group": "Mai-Mai",
                "latitude": 1.2451005298250015,
                "longitude": 28.663138533365895,
                "year": 2000,
                "source": "IPIS",
                "distance_to_boundary_km": 65.61,
                "is_inside": true
            },
            "geometry": {
                "type": "Point",
                "coordinates": [
                    28.663138533365895,
                    1.2451005298250015
                ]
            }
        },
        {
            "type": "Feature",
            "properties": {
                "site_id": "IPIS-67879",
                "site_name": "Site IPIS-67879",
                "commodity": "Diamond",
                "impact_type": "Deforestation",
                "impact_score": 4,
                "armed_group": "ADF",
                "latitude": 1.9083217717827914,
                "longitude": 28.42051107248314,
                "year": 2021,
                "source": "IPIS",
                "distance_to_boundary_km": 80.69,
                "is_inside": true
            },
            "geometry": {
                "type": "Point",
                "coordinates": [
                    28.42051107248314,
                    1.9083217717827914
                ]
            }
        },
        {
            "type": "Feature",
            "properties": {
                "site_id": "IPIS-41882",
                "site_name": "Site IPIS-41882",
                "commodity": "Diamond",
                "impact_type": "Child Labor",
                "impact_score": 2,
                "armed_group": "None",
                "latitude": 1.1143145508261387,
                "longitude": 28.843633429914327,
                "year": 2017,
                "source": "IPIS",
                "distance_to_boundary_km": 41.61,
                "is_inside": true
            },
            "geometry": {
                "type": "Point",
                "coordinates": [
                    28.843633429914327,
                    1.1143145508261387
                ]
            }
        },
        {
            "type": "Feature",
            "properties": {
                "site_id": "IPIS-55136",
                "site_name": "Site IPIS-55136",
                "commodity": "Diamond",
                "impact_type": "Child Labor",
                "impact_score": 8,
                "armed_group": "Local Militia",
                "latitude": 1.8552012299009168,
                "longitude": 28.745781465951843,
                "year": 2017,
                "source": "IPIS",
                "distance_to_boundary_km": 87.68,
                "is_inside": true
            },
            "geometry": {
                "type": "Point",
                "coordinates": [
                    28.745781465951843,
                    1.8552012299009168
                ]
            }
        },
        {
            "type": "Feature",
            "properties": {
                "site_id": "IPIS-76310",
                "site_name": "Site IPIS-76310",
                "commodity": "Cassiterite",
                "impact_type": "Deforestation",
                "impact_score": 2,
                "armed_group": "Mai-Mai",
                "latitude": 1.8608974379105936,
                "longitude": 28.163151868865175,
                "year": 2026,
                "source": "IPIS",
                "distance_to_boundary_km": 73.34,
                "is_inside": true
            },
            "geometry": {
                "type": "Point",
                "coordinates": [
                    28.163151868865175,
                    1.8608974379105936
                ]
            }
        },
        {
            "type": "Feature",
            "properties": {
                "site_id": "IPIS-40830",
                "site_name": "Site IPIS-40830",
                "commodity": "Cassiterite",
                "impact_type": "Child Labor",
                "impact_score": 4,
                "armed_group": "Mai-Mai",
                "latitude": 2.3487724640500947,
                "longitude": 28.897217516096248,
                "year": 2022,
                "source": "IPIS",
                "distance_to_boundary_km": 37.61,
                "is_inside": true
            },
            "geometry": {
                "type": "Point",
                "coordinates": [
                    28.897217516096248,
                    2.3487724640500947
                ]
            }
        },
        {
            "type": "Feature",
            "properties": {
                "site_id": "IPIS-84481",
                "site_name": "Site IPIS-84481",
                "commodity": "Coltan",
                "impact_type": "Child Labor",
                "impact_score": 6,
                "armed_group": "None",
                "latitude": 1.6758971147735546,
                "longitude": 29.04345851186932,
                "year": 2015,
                "source": "IPIS",
                "distance_to_boundary_km": 77.14,
                "is_inside": true
            },
            "geometry": {
                "type": "Point",
                "coordinates": [
                    29.04345851186932,
                    1.6758971147735546
                ]
            }
        },
        {
            "type": "Feature",
            "properties": {
                "site_id": "IPIS-40070",
                "site_name": "Site IPIS-40070",
                "commodity": "Cassiterite",
                "impact_type": "Mercury Pollution",
                "impact_score": 7,
                "armed_group": "Mai-Mai",
                "latitude": 2.231017002642969,
                "longitude": 28.533146805386313,
                "year": 2002,
                "source": "IPIS",
                "distance_to_boundary_km": 66.36,
                "is_inside": true
            },
            "geometry": {
                "type": "Point",
                "coordinates": [
                    28.533146805386313,
                    2.231017002642969
                ]
            }
        },
        {
            "type": "Feature",
            "properties": {
                "site_id": "IPIS-10622",
                "site_name": "Site IPIS-10622",
                "commodity": "Wolframite",
                "impact_type": "Deforestation",
                "impact_score": 7,
                "armed_group": "Mai-Mai",
                "latitude": 1.5826082111141058,
                "longitude": 29.004924695136218,
                "year": 2018,
                "source": "IPIS",
                "distance_to_boundary_km": 68.32,
                "is_inside": true
            },
            "geometry": {
                "type": "Point",
                "coordinates": [
                    29.004924695136218,
                    1.5826082111141058
                ]
            }
        },
        {
            "type": "Feature",
            "properties": {
                "site_id": "IPIS-97329",
                "site_name": "Site IPIS-97329",
                "commodity": "Coltan",
                "impact_type": "Armed Presence",
                "impact_score": 10,
                "armed_group": "ADF",
                "latitude": 2.4163752321795844,
                "longitude": 29.004861421343968,
                "year": 2008,
                "source": "IPIS",
                "distance_to_boundary_km": 23.59,
                "is_inside": true
            },
            "geometry": {
                "type": "Point",
                "coordinates": [
                    29.004861421343968,
                    2.4163752321795844
                ]
            }
        },
        {
            "type": "Feature",
            "properties": {
                "site_id": "IPIS-94833",
                "site_name": "Site IPIS-94833",
                "commodity": "Cassiterite",
                "impact_type": "Mercury Pollution",
                "impact_score": 8,
                "armed_group": "None",
                "latitude": 1.100500601411539,
                "longitude": 28.677104878852838,
                "year": 2000,
                "source": "IPIS",
                "distance_to_boundary_km": 59.2,
                "is_inside": true
            },
            "geometry": {
                "type": "Point",
                "coordinates": [
                    28.677104878852838,
                    1.100500601411539
                ]
            }
        },
        {
            "type": "Feature",
            "properties": {
                "site_id": "IPIS-82158",
                "site_name": "Site IPIS-82158",
                "commodity": "Coltan",
                "impact_type": "Child Labor",
                "impact_score": 2,
                "armed_group": "ADF",
                "latitude": 1.6445489318978486,
                "longitude": 29.131263923751384,
                "year": 2020,
                "source": "IPIS",
                "distance_to_boundary_km": 72.08,
                "is_inside": true
            },
            "geometry": {
                "type": "Point",
                "coordinates": [
                    29.131263923751384,
                    1.6445489318978486
                ]
            }
        },
        {
            "type": "Feature",
            "properties": {
                "site_id": "IPIS-67858",
                "site_name": "Site IPIS-67858",
                "commodity": "Wolframite",
                "impact_type": "Mercury Pollution",
                "impact_score": 7,
                "armed_group": "ADF",
                "latitude": 1.103998757164292,
                "longitude": 28.47319044315815,
                "year": 2003,
                "source": "IPIS",
                "distance_to_boundary_km": 53.86,
                "is_inside": true
            },
            "geometry": {
                "type": "Point",
                "coordinates": [
                    28.47319044315815,
                    1.103998757164292
                ]
            }
        },
        {
            "type": "Feature",
            "properties": {
                "site_id": "IPIS-44832",
                "site_name": "Site IPIS-44832",
                "commodity": "Diamond",
                "impact_type": "Mercury Pollution",
                "impact_score": 10,
                "armed_group": "ADF",
                "latitude": 1.6804903289907895,
                "longitude": 28.36339904904468,
                "year": 2022,
                "source": "IPIS",
                "distance_to_boundary_km": 85.78,
                "is_inside": true
            },
            "geometry": {
                "type": "Point",
                "coordinates": [
                    28.36339904904468,
                    1.6804903289907895
                ]
            }
        },
        {
            "type": "Feature",
            "properties": {
                "site_id": "IPIS-48136",
                "site_name": "Site IPIS-48136",
                "commodity": "Coltan",
                "impact_type": "Child Labor",
                "impact_score": 6,
                "armed_group": "Mai-Mai",
                "latitude": 1.7427435496302421,
                "longitude": 28.684677498872556,
                "year": 2003,
                "source": "IPIS",
                "distance_to_boundary_km": 100.51,
                "is_inside": true
            },
            "geometry": {
                "type": "Point",
                "coordinates": [
                    28.684677498872556,
                    1.7427435496302421
                ]
            }
        },
        {
            "type": "Feature",
            "properties": {
                "site_id": "IPIS-15635",
                "site_name": "Site IPIS-15635",
                "commodity": "Cassiterite",
                "impact_type": "Deforestation",
                "impact_score": 4,
                "armed_group": "ADF",
                "latitude": 1.7003370489109078,
                "longitude": 28.595693868725405,
                "year": 2001,
                "source": "IPIS",
                "distance_to_boundary_km": 102.22,
                "is_inside": true
            },
            "geometry": {
                "type": "Point",
                "coordinates": [
                    28.595693868725405,
                    1.7003370489109078
                ]
            }
        },
        {
            "type": "Feature",
            "properties": {
                "site_id": "IPIS-90740",
                "site_name": "Site IPIS-90740",
                "commodity": "Diamond",
                "impact_type": "Child Labor",
                "impact_score": 8,
                "armed_group": "Mai-Mai",
                "latitude": 2.439268091373277,
                "longitude": 28.35557583692858,
                "year": 2019,
                "source": "IPIS",
                "distance_to_boundary_km": 40.07,
                "is_inside": true
            },
            "geometry": {
                "type": "Point",
                "coordinates": [
                    28.35557583692858,
                    2.439268091373277
                ]
            }
        },
        {
            "type": "Feature",
            "properties": {
                "site_id": "IPIS-21031",
                "site_name": "Site IPIS-21031",
                "commodity": "Gold",
                "impact_type": "Deforestation",
                "impact_score": 6,
                "armed_group": "Local Militia",
                "latitude": 2.1353989579975137,
                "longitude": 28.52752034025544,
                "year": 2010,
                "source": "IPIS",
                "distance_to_boundary_km": 71.27,
                "is_inside": true
            },
            "geometry": {
                "type": "Point",
                "coordinates": [
                    28.52752034025544,
                    2.1353989579975137
                ]
            }
        },
        {
            "type": "Feature",
            "properties": {
                "site_id": "IPIS-60591",
                "site_name": "Site IPIS-60591",
                "commodity": "Coltan",
                "impact_type": "Child Labor",
                "impact_score": 6,
                "armed_group": "Mai-Mai",
                "latitude": 2.2654510839848463,
                "longitude": 28.259280765424613,
                "year": 2003,
                "source": "IPIS",
                "distance_to_boundary_km": 38.86,
                "is_inside": true
            },
            "geometry": {
                "type": "Point",
                "coordinates": [
                    28.259280765424613,
                    2.2654510839848463
                ]
            }
        },
        {
            "type": "Feature",
            "properties": {
                "site_id": "IPIS-94843",
                "site_name": "Site IPIS-94843",
                "commodity": "Gold",
                "impact_type": "Mercury Pollution",
                "impact_score": 5,
                "armed_group": "Mai-Mai",
                "latitude": 1.8951093549468123,
                "longitude": 28.335525294175323,
                "year": 2026,
                "source": "IPIS",
                "distance_to_boundary_km": 76.9,
                "is_inside": true
            },
            "geometry": {
                "type": "Point",
                "coordinates": [
                    28.335525294175323,
                    1.8951093549468123
                ]
            }
        },
        {
            "type": "Feature",
            "properties": {
                "site_id": "IPIS-94841",
                "site_name": "Site IPIS-94841",
                "commodity": "Gold",
                "impact_type": "Deforestation",
                "impact_score": 2,
                "armed_group": "ADF",
                "latitude": 1.8239080110663797,
                "longitude": 28.759727755428436,
                "year": 2009,
                "source": "IPIS",
                "distance_to_boundary_km": 89.69,
                "is_inside": true
            },
            "geometry": {
                "type": "Point",
                "coordinates": [
                    28.759727755428436,
                    1.8239080110663797
                ]
            }
        },
        {
            "type": "Feature",
            "properties": {
                "site_id": "IPIS-91840",
                "site_name": "Site IPIS-91840",
                "commodity": "Wolframite",
                "impact_type": "Deforestation",
                "impact_score": 2,
                "armed_group": "ADF",
                "latitude": 1.6662422497159617,
                "longitude": 28.664650910028932,
                "year": 2017,
                "source": "IPIS",
                "distance_to_boundary_km": 95.03,
                "is_inside": true
            },
            "geometry": {
                "type": "Point",
                "coordinates": [
                    28.664650910028932,
                    1.6662422497159617
                ]
            }
        },
        {
            "type": "Feature",
            "properties": {
                "site_id": "IPIS-97856",
                "site_name": "Site IPIS-97856",
                "commodity": "Cassiterite",
                "impact_type": "Armed Presence",
                "impact_score": 2,
                "armed_group": "ADF",
                "latitude": 1.062877410086508,
                "longitude": 28.413040180093706,
                "year": 2024,
                "source": "IPIS",
                "distance_to_boundary_km": 46.45,
                "is_inside": true
            },
            "geometry": {
                "type": "Point",
                "coordinates": [
                    28.413040180093706,
                    1.062877410086508
                ]
            }
        },
        {
            "type": "Feature",
            "properties": {
                "site_id": "IPIS-13063",
                "site_name": "Site IPIS-13063",
                "commodity": "Cassiterite",
                "impact_type": "Armed Presence",
                "impact_score": 1,
                "armed_group": "ADF",
                "latitude": 1.6678496510614056,
                "longitude": 28.49711828292527,
                "year": 2015,
                "source": "IPIS",
                "distance_to_boundary_km": 92.57,
                "is_inside": true
            },
            "geometry": {
                "type": "Point",
                "coordinates": [
                    28.49711828292527,
                    1.6678496510614056
                ]
            }
        },
        {
            "type": "Feature",
            "properties": {
                "site_id": "IPIS-23007",
                "site_name": "Site IPIS-23007",
                "commodity": "Wolframite",
                "impact_type": "Armed Presence",
                "impact_score": 7,
                "armed_group": "ADF",
                "latitude": 1.563810444565441,
                "longitude": 29.071139837810712,
                "year": 2014,
                "source": "IPIS",
                "distance_to_boundary_km": 64.31,
                "is_inside": true
            },
            "geometry": {
                "type": "Point",
                "coordinates": [
                    29.071139837810712,
                    1.563810444565441
                ]
            }
        },
        {
            "type": "Feature",
            "properties": {
                "site_id": "IPIS-63307",
                "site_name": "Site IPIS-63307",
                "commodity": "Coltan",
                "impact_type": "Child Labor",
                "impact_score": 9,
                "armed_group": "Mai-Mai",
                "latitude": 2.1775446669657645,
                "longitude": 28.638446410727383,
                "year": 2022,
                "source": "IPIS",
                "distance_to_boundary_km": 71.96,
                "is_inside": true
            },
            "geometry": {
                "type": "Point",
                "coordinates": [
                    28.638446410727383,
                    2.1775446669657645
                ]
            }
        },
        {
            "type": "Feature",
            "properties": {
                "site_id": "IPIS-57575",
                "site_name": "Site IPIS-57575",
                "commodity": "Diamond",
                "impact_type": "Armed Presence",
                "impact_score": 10,
                "armed_group": "Mai-Mai",
                "latitude": 2.121447776330033,
                "longitude": 28.569811116179924,
                "year": 2009,
                "source": "IPIS",
                "distance_to_boundary_km": 76.02,
                "is_inside": true
            },
            "geometry": {
                "type": "Point",
                "coordinates": [
                    28.569811116179924,
                    2.121447776330033
                ]
            }
        },
        {
            "type": "Feature",
            "properties": {
                "site_id": "IPIS-55159",
                "site_name": "Site IPIS-55159",
                "commodity": "Gold",
                "impact_type": "Deforestation",
                "impact_score": 9,
                "armed_group": "Local Militia",
                "latitude": 1.2301144298271778,
                "longitude": 28.98345446231662,
                "year": 2017,
                "source": "IPIS",
                "distance_to_boundary_km": 35.13,
                "is_inside": true
            },
            "geometry": {
                "type": "Point",
                "coordinates": [
                    28.98345446231662,
                    1.2301144298271778
                ]
            }
        },
        {
            "type": "Feature",
            "properties": {
                "site_id": "IPIS-95137",
                "site_name": "Site IPIS-95137",
                "commodity": "Wolframite",
                "impact_type": "Mercury Pollution",
                "impact_score": 2,
                "armed_group": "None",
                "latitude": 1.1434413441725706,
                "longitude": 28.898947240154204,
                "year": 2021,
                "source": "IPIS",
                "distance_to_boundary_km": 37.08,
                "is_inside": true
            },
            "geometry": {
                "type": "Point",
                "coordinates": [
                    28.898947240154204,
                    1.1434413441725706
                ]
            }
        },
        {
            "type": "Feature",
            "properties": {
                "site_id": "IPIS-45004",
                "site_name": "Site IPIS-45004",
                "commodity": "Wolframite",
                "impact_type": "Deforestation",
                "impact_score": 10,
                "armed_group": "Local Militia",
                "latitude": 2.2572888691793063,
                "longitude": 29.139868054139377,
                "year": 2026,
                "source": "IPIS",
                "distance_to_boundary_km": 27.8,
                "is_inside": true
            },
            "geometry": {
                "type": "Point",
                "coordinates": [
                    29.139868054139377,
                    2.2572888691793063
                ]
            }
        },
        {
            "type": "Feature",
            "properties": {
                "site_id": "IPIS-55600",
                "site_name": "Site IPIS-55600",
                "commodity": "Coltan",
                "impact_type": "Deforestation",
                "impact_score": 2,
                "armed_group": "None",
                "latitude": 1.8674620048600405,
                "longitude": 29.154589376141185,
                "year": 2019,
                "source": "IPIS",
                "distance_to_boundary_km": 70.52,
                "is_inside": true
            },
            "geometry": {
                "type": "Point",
                "coordinates": [
                    29.154589376141185,
                    1.8674620048600405
                ]
            }
        },
        {
            "type": "Feature",
            "properties": {
                "site_id": "IPIS-27512",
                "site_name": "Site IPIS-27512",
                "commodity": "Cassiterite",
                "impact_type": "Deforestation",
                "impact_score": 7,
                "armed_group": "Local Militia",
                "latitude": 1.4413515243576223,
                "longitude": 28.67867702394012,
                "year": 2002,
                "source": "IPIS",
                "distance_to_boundary_km": 75.94,
                "is_inside": true
            },
            "geometry": {
                "type": "Point",
                "coordinates": [
                    28.67867702394012,
                    1.4413515243576223
                ]
            }
        },
        {
            "type": "Feature",
            "properties": {
                "site_id": "IPIS-43689",
                "site_name": "Site IPIS-43689",
                "commodity": "Diamond",
                "impact_type": "Deforestation",
                "impact_score": 6,
                "armed_group": "None",
                "latitude": 1.4154376098655632,
                "longitude": 28.813990833911557,
                "year": 2002,
                "source": "IPIS",
                "distance_to_boundary_km": 63.05,
                "is_inside": true
            },
            "geometry": {
                "type": "Point",
                "coordinates": [
                    28.813990833911557,
                    1.4154376098655632
                ]
            }
        },
        {
            "type": "Feature",
            "properties": {
                "site_id": "IPIS-21451",
                "site_name": "Site IPIS-21451",
                "commodity": "Diamond",
                "impact_type": "Mercury Pollution",
                "impact_score": 8,
                "armed_group": "Mai-Mai",
                "latitude": 1.2553685458176878,
                "longitude": 28.947194722020043,
                "year": 2008,
                "source": "IPIS",
                "distance_to_boundary_km": 39.95,
                "is_inside": true
            },
            "geometry": {
                "type": "Point",
                "coordinates": [
                    28.947194722020043,
                    1.2553685458176878
                ]
            }
        },
        {
            "type": "Feature",
            "properties": {
                "site_id": "IPIS-84876",
                "site_name": "Site IPIS-84876",
                "commodity": "Coltan",
                "impact_type": "Armed Presence",
                "impact_score": 3,
                "armed_group": "Mai-Mai",
                "latitude": 2.387367234715268,
                "longitude": 29.18198040136012,
                "year": 2020,
                "source": "IPIS",
                "distance_to_boundary_km": 12.68,
                "is_inside": true
            },
            "geometry": {
                "type": "Point",
                "coordinates": [
                    29.18198040136012,
                    2.387367234715268
                ]
            }
        },
        {
            "type": "Feature",
            "properties": {
                "site_id": "IPIS-17042",
                "site_name": "Site IPIS-17042",
                "commodity": "Cassiterite",
                "impact_type": "Armed Presence",
                "impact_score": 1,
                "armed_group": "None",
                "latitude": 2.2702529893583057,
                "longitude": 29.009510938966024,
                "year": 2012,
                "source": "IPIS",
                "distance_to_boundary_km": 33.17,
                "is_inside": true
            },
            "geometry": {
                "type": "Point",
                "coordinates": [
                    29.009510938966024,
                    2.2702529893583057
                ]
            }
        },
        {
            "type": "Feature",
            "properties": {
                "site_id": "IPIS-69658",
                "site_name": "Site IPIS-69658",
                "commodity": "Wolframite",
                "impact_type": "Child Labor",
                "impact_score": 3,
                "armed_group": "None",
                "latitude": 2.3581316773266905,
                "longitude": 29.139646704031932,
                "year": 2003,
                "source": "IPIS",
                "distance_to_boundary_km": 17.14,
                "is_inside": true
            },
            "geometry": {
                "type": "Point",
                "coordinates": [
                    29.139646704031932,
                    2.3581316773266905
                ]
            }
        },
        {
            "type": "Feature",
            "properties": {
                "site_id": "IPIS-61895",
                "site_name": "Site IPIS-61895",
                "commodity": "Wolframite",
                "impact_type": "Deforestation",
                "impact_score": 1,
                "armed_group": "None",
                "latitude": 2.1029317119100455,
                "longitude": 28.815690479131803,
                "year": 2014,
                "source": "IPIS",
                "distance_to_boundary_km": 61.42,
                "is_inside": true
            },
            "geometry": {
                "type": "Point",
                "coordinates": [
                    28.815690479131803,
                    2.1029317119100455
                ]
            }
        },
        {
            "type": "Feature",
            "properties": {
                "site_id": "IPIS-27226",
                "site_name": "Site IPIS-27226",
                "commodity": "Wolframite",
                "impact_type": "Deforestation",
                "impact_score": 9,
                "armed_group": "ADF",
                "latitude": 1.235095043653404,
                "longitude": 28.919669416512594,
                "year": 2026,
                "source": "IPIS",
                "distance_to_boundary_km": 40.68,
                "is_inside": true
            },
            "geometry": {
                "type": "Point",
                "coordinates": [
                    28.919669416512594,
                    1.235095043653404
                ]
            }
        },
        {
            "type": "Feature",
            "properties": {
                "site_id": "IPIS-27229",
                "site_name": "Site IPIS-27229",
                "commodity": "Diamond",
                "impact_type": "Mercury Pollution",
                "impact_score": 2,
                "armed_group": "None",
                "latitude": 1.2759893920519327,
                "longitude": 29.161879880735988,
                "year": 2018,
                "source": "IPIS",
                "distance_to_boundary_km": 30.98,
                "is_inside": true
            },
            "geometry": {
                "type": "Point",
                "coordinates": [
                    29.161879880735988,
                    1.2759893920519327
                ]
            }
        },
        {
            "type": "Feature",
            "properties": {
                "site_id": "IPIS-59805",
                "site_name": "Site IPIS-59805",
                "commodity": "Cassiterite",
                "impact_type": "Mercury Pollution",
                "impact_score": 2,
                "armed_group": "None",
                "latitude": 1.7434532804209493,
                "longitude": 28.327593613810237,
                "year": 2002,
                "source": "IPIS",
                "distance_to_boundary_km": 90.33,
                "is_inside": true
            },
            "geometry": {
                "type": "Point",
                "coordinates": [
                    28.327593613810237,
                    1.7434532804209493
                ]
            }
        }
    ]
}