{
    "type": "FeatureCollection",
    "features": [
        {
            "type": "Feature",
            "properties": {
                "title_id": "PE-2505",
                "permit_name": "Permit PE-2505",
                "operator": "Artisanal Cooperatives",
                "mineral_type": "Diamond",
                "status": "Renewal",
                "issue_date": "2023-01-01",
                "expiry_date": "2033-01-01",
                "province": "Ituri",
                "territory": "Mambasa",
                "latitude": 1.2668675563417773,
                "longitude": 27.85060665623375,
                "source": "CAMI",
                "year": 2023,
                "distance_to_boundary_km": 34.01,
                "is_inside": false
            },
            "geometry": {
                "type": "Point",
                "coordinates": [
                    27.85060665623375,
                    1.2668675563417773
                ]
            }
        },
        {
            "type": "Feature",
            "properties": {
                "title_id": "PE-2631",
                "permit_name": "Permit PE-2631",
                "operator": "Banro Corp",
                "mineral_type": "Diamond",
                "status": "Inactive",
                "issue_date": "2016-01-01",
                "expiry_date": "2026-01-01",
                "province": "Ituri",
                "territory": "Mambasa",
                "latitude": 2.792866802874971,
                "longitude": 28.17046326364401,
                "source": "CAMI",
                "year": 2016,
                "distance_to_boundary_km": 37.67,
                "is_inside": false
            },
            "geometry": {
                "type": "Point",
                "coordinates": [
                    28.17046326364401,
                    2.792866802874971
                ]
            }
        },
        {
            "type": "Feature",
            "properties": {
                "title_id": "PE-9484",
                "permit_name": "Permit PE-9484",
                "operator": "Artisanal Cooperatives",
                "mineral_type": "Coltan",
                "status": "Inactive",
                "issue_date": "2013-01-01",
                "expiry_date": "2023-01-01",
                "province": "Ituri",
                "territory": "Mambasa",
                "latitude": 2.37517782804891,
                "longitude": 29.049042861361666,
                "source": "CAMI",
                "year": 2013,
                "distance_to_boundary_km": 21.77,
                "is_inside": true
            },
            "geometry": {
                "type": "Point",
                "coordinates": [
                    29.049042861361666,
                    2.37517782804891
                ]
            }
        },
        {
            "type": "Feature",
            "properties": {
                "title_id": "PE-4751",
                "permit_name": "Permit PE-4751",
                "operator": "Kibali Gold",
                "mineral_type": "Wolframite",
                "status": "Renewal",
                "issue_date": "2023-01-01",
                "expiry_date": "2033-01-01",
                "province": "Ituri",
                "territory": "Mambasa",
                "latitude": 1.2339786542895808,
                "longitude": 28.09879005891336,
                "source": "CAMI",
                "year": 2023,
                "distance_to_boundary_km": 28.24,
                "is_inside": true
            },
            "geometry": {
                "type": "Point",
                "coordinates": [
                    28.09879005891336,
                    1.2339786542895808
                ]
            }
        },
        {
            "type": "Feature",
            "properties": {
                "title_id": "PE-9112",
                "permit_name": "Permit PE-9112",
                "operator": "Artisanal Cooperatives",
                "mineral_type": "Gold",
                "status": "Active",
                "issue_date": "2018-01-01",
                "expiry_date": "2028-01-01",
                "province": "Ituri",
                "territory": "Mambasa",
                "latitude": 0.6579490531920644,
                "longitude": 29.34602428818195,
                "source": "CAMI",
                "year": 2018,
                "distance_to_boundary_km": 41.35,
                "is_inside": false
            },
            "geometry": {
                "type": "Point",
                "coordinates": [
                    29.34602428818195,
                    0.6579490531920644
                ]
            }
        },
        {
            "type": "Feature",
            "properties": {
                "title_id": "PE-6371",
                "permit_name": "Permit PE-6371",
                "operator": "AngloGold Ashanti",
                "mineral_type": "Coltan",
                "status": "Active",
                "issue_date": "2001-01-01",
                "expiry_date": "2011-01-01",
                "province": "Ituri",
                "territory": "Mambasa",
                "latitude": 2.560346672591064,
                "longitude": 28.41146096970911,
                "source": "CAMI",
                "year": 2001,
                "distance_to_boundary_km": 46.2,
                "is_inside": false
            },
            "geometry": {
                "type": "Point",
                "coordinates": [
                    28.41146096970911,
                    2.560346672591064
                ]
            }
        },
        {
            "type": "Feature",
            "properties": {
                "title_id": "PE-3729",
                "permit_name": "Permit PE-3729",
                "operator": "AngloGold Ashanti",
                "mineral_type": "Coltan",
                "status": "Inactive",
                "issue_date": "2006-01-01",
                "expiry_date": "2016-01-01",
                "province": "Ituri",
                "territory": "Mambasa",
                "latitude": 2.4400719664196533,
                "longitude": 27.89924177425899,
                "source": "CAMI",
                "year": 2006,
                "distance_to_boundary_km": 13.03,
                "is_inside": false
            },
            "geometry": {
                "type": "Point",
                "coordinates": [
                    27.89924177425899,
                    2.4400719664196533
                ]
            }
        },
        {
            "type": "Feature",
            "properties": {
                "title_id": "PE-9747",
                "permit_name": "Permit PE-9747",
                "operator": "Banro Corp",
                "mineral_type": "Wolframite",
                "status": "Active",
                "issue_date": "2026-01-01",
                "expiry_date": "2036-01-01",
                "province": "Ituri",
                "territory": "Mambasa",
                "latitude": 2.1444655234917716,
                "longitude": 29.461693115074375,
                "source": "CAMI",
                "year": 2026,
                "distance_to_boundary_km": 49.07,
                "is_inside": false
            },
            "geometry": {
                "type": "Point",
                "coordinates": [
                    29.461693115074375,
                    2.1444655234917716
                ]
            }
        },
        {
            "type": "Feature",
            "properties": {
                "title_id": "PE-2148",
                "permit_name": "Permit PE-2148",
                "operator": "Artisanal Cooperatives",
                "mineral_type": "Diamond",
                "status": "Active",
                "issue_date": "2000-01-01",
                "expiry_date": "2010-01-01",
                "province": "Ituri",
                "territory": "Mambasa",
                "latitude": 0.7279445068052164,
                "longitude": 28.9053748783353,
                "source": "CAMI",
                "year": 2000,
                "distance_to_boundary_km": 44.59,
                "is_inside": false
            },
            "geometry": {
                "type": "Point",
                "coordinates": [
                    28.9053748783353,
                    0.7279445068052164
                ]
            }
        },
        {
            "type": "Feature",
            "properties": {
                "title_id": "PE-2737",
                "permit_name": "Permit PE-2737",
                "operator": "AngloGold Ashanti",
                "mineral_type": "Cassiterite",
                "status": "Active",
                "issue_date": "2002-01-01",
                "expiry_date": "2012-01-01",
                "province": "Ituri",
                "territory": "Mambasa",
                "latitude": 2.2636336191031163,
                "longitude": 28.097222301960418,
                "source": "CAMI",
                "year": 2002,
                "distance_to_boundary_km": 28.42,
                "is_inside": true
            },
            "geometry": {
                "type": "Point",
                "coordinates": [
                    28.097222301960418,
                    2.2636336191031163
                ]
            }
        },
        {
            "type": "Feature",
            "properties": {
                "title_id": "PE-5502",
                "permit_name": "Permit PE-5502",
                "operator": "Artisanal Cooperatives",
                "mineral_type": "Gold",
                "status": "Expired",
                "issue_date": "2002-01-01",
                "expiry_date": "2012-01-01",
                "province": "Ituri",
                "territory": "Mambasa",
                "latitude": 2.4006884211825454,
                "longitude": 28.926366943316722,
                "source": "CAMI",
                "year": 2002,
                "distance_to_boundary_km": 32.34,
                "is_inside": true
            },
            "geometry": {
                "type": "Point",
                "coordinates": [
                    28.926366943316722,
                    2.4006884211825454
                ]
            }
        },
        {
            "type": "Feature",
            "properties": {
                "title_id": "PE-4253",
                "permit_name": "Permit PE-4253",
                "operator": "Alphamin",
                "mineral_type": "Gold",
                "status": "Inactive",
                "issue_date": "2004-01-01",
                "expiry_date": "2014-01-01",
                "province": "Ituri",
                "territory": "Mambasa",
                "latitude": 0.7825546708628832,
                "longitude": 27.621327575917796,
                "source": "CAMI",
                "year": 2004,
                "distance_to_boundary_km": 48.55,
                "is_inside": false
            },
            "geometry": {
                "type": "Point",
                "coordinates": [
                    27.621327575917796,
                    0.7825546708628832
                ]
            }
        },
        {
            "type": "Feature",
            "properties": {
                "title_id": "PE-2216",
                "permit_name": "Permit PE-2216",
                "operator": "AngloGold Ashanti",
                "mineral_type": "Coltan",
                "status": "Inactive",
                "issue_date": "2016-01-01",
                "expiry_date": "2026-01-01",
                "province": "Ituri",
                "territory": "Mambasa",
                "latitude": 2.568578638016059,
                "longitude": 28.77083342522556,
                "source": "CAMI",
                "year": 2016,
                "distance_to_boundary_km": 48.28,
                "is_inside": false
            },
            "geometry": {
                "type": "Point",
                "coordinates": [
                    28.77083342522556,
                    2.568578638016059
                ]
            }
        },
        {
            "type": "Feature",
            "properties": {
                "title_id": "PE-8563",
                "permit_name": "Permit PE-8563",
                "operator": "Kibali Gold",
                "mineral_type": "Diamond",
                "status": "Renewal",
                "issue_date": "2021-01-01",
                "expiry_date": "2031-01-01",
                "province": "Ituri",
                "territory": "Mambasa",
                "latitude": 2.2646135367226217,
                "longitude": 28.37485252397879,
                "source": "CAMI",
                "year": 2021,
                "distance_to_boundary_km": 49.19,
                "is_inside": true
            },
            "geometry": {
                "type": "Point",
                "coordinates": [
                    28.37485252397879,
                    2.2646135367226217
                ]
            }
        },
        {
            "type": "Feature",
            "properties": {
                "title_id": "PE-2051",
                "permit_name": "Permit PE-2051",
                "operator": "Kibali Gold",
                "mineral_type": "Gold",
                "status": "Expired",
                "issue_date": "2001-01-01",
                "expiry_date": "2011-01-01",
                "province": "Ituri",
                "territory": "Mambasa",
                "latitude": 2.174072168282633,
                "longitude": 29.214842689081777,
                "source": "CAMI",
                "year": 2001,
                "distance_to_boundary_km": 36.28,
                "is_inside": false
            },
            "geometry": {
                "type": "Point",
                "coordinates": [
                    29.214842689081777,
                    2.174072168282633
                ]
            }
        },
        {
            "type": "Feature",
            "properties": {
                "title_id": "PE-8236",
                "permit_name": "Permit PE-8236",
                "operator": "Kibali Gold",
                "mineral_type": "Gold",
                "status": "Active",
                "issue_date": "2020-01-01",
                "expiry_date": "2030-01-01",
                "province": "Ituri",
                "territory": "Mambasa",
                "latitude": 2.470541213897844,
                "longitude": 28.107939985424103,
                "source": "CAMI",
                "year": 2020,
                "distance_to_boundary_km": 12.43,
                "is_inside": true
            },
            "geometry": {
                "type": "Point",
                "coordinates": [
                    28.107939985424103,
                    2.470541213897844
                ]
            }
        },
        {
            "type": "Feature",
            "properties": {
                "title_id": "PE-4360",
                "permit_name": "Permit PE-4360",
                "operator": "Alphamin",
                "mineral_type": "Cassiterite",
                "status": "Inactive",
                "issue_date": "2010-01-01",
                "expiry_date": "2020-01-01",
                "province": "Ituri",
                "territory": "Mambasa",
                "latitude": 2.2132159074426268,
                "longitude": 29.31128443527764,
                "source": "CAMI",
                "year": 2010,
                "distance_to_boundary_km": 34.2,
                "is_inside": false
            },
            "geometry": {
                "type": "Point",
                "coordinates": [
                    29.31128443527764,
                    2.2132159074426268
                ]
            }
        },
        {
            "type": "Feature",
            "properties": {
                "title_id": "PE-6908",
                "permit_name": "Permit PE-6908",
                "operator": "Alphamin",
                "mineral_type": "Coltan",
                "status": "Expired",
                "issue_date": "2017-01-01",
                "expiry_date": "2027-01-01",
                "province": "Ituri",
                "territory": "Mambasa",
                "latitude": 2.352333685777191,
                "longitude": 29.53513381039873,
                "source": "CAMI",
                "year": 2017,
                "distance_to_boundary_km": 40.69,
                "is_inside": false
            },
            "geometry": {
                "type": "Point",
                "coordinates": [
                    29.53513381039873,
                    2.352333685777191
                ]
            }
        },
        {
            "type": "Feature",
            "properties": {
                "title_id": "PE-4922",
                "permit_name": "Permit PE-4922",
                "operator": "Banro Corp",
                "mineral_type": "Diamond",
                "status": "Renewal",
                "issue_date": "2006-01-01",
                "expiry_date": "2016-01-01",
                "province": "Ituri",
                "territory": "Mambasa",
                "latitude": 2.5361184383333764,
                "longitude": 28.103341298047244,
                "source": "CAMI",
                "year": 2006,
                "distance_to_boundary_km": 12.16,
                "is_inside": false
            },
            "geometry": {
                "type": "Point",
                "coordinates": [
                    28.103341298047244,
                    2.5361184383333764
                ]
            }
        },
        {
            "type": "Feature",
            "properties": {
                "title_id": "PE-8091",
                "permit_name": "Permit PE-8091",
                "operator": "Banro Corp",
                "mineral_type": "Coltan",
                "status": "Active",
                "issue_date": "2025-01-01",
                "expiry_date": "2035-01-01",
                "province": "Ituri",
                "territory": "Mambasa",
                "latitude": 0.8351984421291001,
                "longitude": 29.400558811891116,
                "source": "CAMI",
                "year": 2025,
                "distance_to_boundary_km": 28.86,
                "is_inside": false
            },
            "geometry": {
                "type": "Point",
                "coordinates": [
                    29.400558811891116,
                    0.8351984421291001
                ]
            }
        },
        {
            "type": "Feature",
            "properties": {
                "title_id": "PE-5785",
                "permit_name": "Permit PE-5785",
                "operator": "AngloGold Ashanti",
                "mineral_type": "Cassiterite",
                "status": "Inactive",
                "issue_date": "2002-01-01",
                "expiry_date": "2012-01-01",
                "province": "Ituri",
                "territory": "Mambasa",
                "latitude": 2.369649788810341,
                "longitude": 27.730539008596608,
                "source": "CAMI",
                "year": 2002,
                "distance_to_boundary_km": 33.26,
                "is_inside": false
            },
            "geometry": {
                "type": "Point",
                "coordinates": [
                    27.730539008596608,
                    2.369649788810341
                ]
            }
        },
        {
            "type": "Feature",
            "properties": {
                "title_id": "PE-3689",
                "permit_name": "Permit PE-3689",
                "operator": "Banro Corp",
                "mineral_type": "Wolframite",
                "status": "Renewal",
                "issue_date": "2012-01-01",
                "expiry_date": "2022-01-01",
                "province": "Ituri",
                "territory": "Mambasa",
                "latitude": 2.270577437422599,
                "longitude": 29.402954824925036,
                "source": "CAMI",
                "year": 2012,
                "distance_to_boundary_km": 34.05,
                "is_inside": false
            },
            "geometry": {
                "type": "Point",
                "coordinates": [
                    29.402954824925036,
                    2.270577437422599
                ]
            }
        },
        {
            "type": "Feature",
            "properties": {
                "title_id": "PE-8326",
                "permit_name": "Permit PE-8326",
                "operator": "AngloGold Ashanti",
                "mineral_type": "Cassiterite",
                "status": "Expired",
                "issue_date": "2024-01-01",
                "expiry_date": "2034-01-01",
                "province": "Ituri",
                "territory": "Mambasa",
                "latitude": 0.9540236287948243,
                "longitude": 28.75956064354052,
                "source": "CAMI",
                "year": 2024,
                "distance_to_boundary_km": 49.23,
                "is_inside": false
            },
            "geometry": {
                "type": "Point",
                "coordinates": [
                    28.75956064354052,
                    0.9540236287948243
                ]
            }
        },
        {
            "type": "Feature",
            "properties": {
                "title_id": "PE-2091",
                "permit_name": "Permit PE-2091",
                "operator": "Artisanal Cooperatives",
                "mineral_type": "Gold",
                "status": "Inactive",
                "issue_date": "2025-01-01",
                "expiry_date": "2035-01-01",
                "province": "Ituri",
                "territory": "Mambasa",
                "latitude": 0.7315568785764649,
                "longitude": 27.843839643985124,
                "source": "CAMI",
                "year": 2025,
                "distance_to_boundary_km": 34.53,
                "is_inside": false
            },
            "geometry": {
                "type": "Point",
                "coordinates": [
                    27.843839643985124,
                    0.7315568785764649
                ]
            }
        },
        {
            "type": "Feature",
            "properties": {
                "site_id": "IPIS-28778",
                "site_name": "Site IPIS-28778",
                "commodity": "Wolframite",
                "impact_type": "Mercury Pollution",
                "impact_score": 3,
                "armed_group": "None",
                "latitude": 2.279109626083142,
                "longitude": 28.833257194013616,
                "year": 2010,
                "source": "IPIS",
                "distance_to_boundary_km": 47.58,
                "is_inside": true
            },
            "geometry": {
                "type": "Point",
                "coordinates": [
                    28.833257194013616,
                    2.279109626083142
                ]
            }
        },
        {
            "type": "Feature",
            "properties": {
                "site_id": "IPIS-17761",
                "site_name": "Site IPIS-17761",
                "commodity": "Gold",
                "impact_type": "Deforestation",
                "impact_score": 3,
                "armed_group": "Mai-Mai",
                "latitude": 0.8195914634647161,
                "longitude": 28.0509809018685,
                "year": 2009,
                "source": "IPIS",
                "distance_to_boundary_km": 20.85,
                "is_inside": false
            },
            "geometry": {
                "type": "Point",
                "coordinates": [
                    28.0509809018685,
                    0.8195914634647161
                ]
            }
        },
        {
            "type": "Feature",
            "properties": {
                "site_id": "IPIS-83872",
                "site_name": "Site IPIS-83872",
                "commodity": "Wolframite",
                "impact_type": "Mercury Pollution",
                "impact_score": 8,
                "armed_group": "Local Militia",
                "latitude": 1.0531972063156254,
                "longitude": 28.068478538640573,
                "year": 2015,
                "source": "IPIS",
                "distance_to_boundary_km": 9.64,
                "is_inside": true
            },
            "geometry": {
                "type": "Point",
                "coordinates": [
                    28.068478538640573,
                    1.0531972063156254
                ]
            }
        },
        {
            "type": "Feature",
            "properties": {
                "site_id": "IPIS-36541",
                "site_name": "Site IPIS-36541",
                "commodity": "Diamond",
                "impact_type": "Deforestation",
                "impact_score": 2,
                "armed_group": "ADF",
                "latitude": 2.632846855490044,
                "longitude": 28.950170961913837,
                "year": 2007,
                "source": "IPIS",
                "distance_to_boundary_km": 31.44,
                "is_inside": false
            },
            "geometry": {
                "type": "Point",
                "coordinates": [
                    28.950170961913837,
                    2.632846855490044
                ]
            }
        },
        {
            "type": "Feature",
            "properties": {
                "site_id": "IPIS-96658",
                "site_name": "Site IPIS-96658",
                "commodity": "Cassiterite",
                "impact_type": "Deforestation",
                "impact_score": 7,
                "armed_group": "Mai-Mai",
                "latitude": 2.3014158677929415,
                "longitude": 28.881928952406337,
                "year": 2015,
                "source": "IPIS",
                "distance_to_boundary_km": 41.67,
                "is_inside": true
            },
            "geometry": {
                "type": "Point",
                "coordinates": [
                    28.881928952406337,
                    2.3014158677929415
                ]
            }
        },
        {
            "type": "Feature",
            "properties": {
                "site_id": "IPIS-27648",
                "site_name": "Site IPIS-27648",
                "commodity": "Cassiterite",
                "impact_type": "Deforestation",
                "impact_score": 10,
                "armed_group": "Local Militia",
                "latitude": 2.550429693843099,
                "longitude": 28.8858483123965,
                "year": 2026,
                "source": "IPIS",
                "distance_to_boundary_km": 35.35,
                "is_inside": false
            },
            "geometry": {
                "type": "Point",
                "coordinates": [
                    28.8858483123965,
                    2.550429693843099
                ]
            }
        },
        {
            "type": "Feature",
            "properties": {
                "site_id": "IPIS-66732",
                "site_name": "Site IPIS-66732",
                "commodity": "Diamond",
                "impact_type": "Deforestation",
                "impact_score": 5,
                "armed_group": "ADF",
                "latitude": 1.0663781166227992,
                "longitude": 29.145493932717027,
                "year": 2014,
                "source": "IPIS",
                "distance_to_boundary_km": 9.55,
                "is_inside": true
            },
            "geometry": {
                "type": "Point",
                "coordinates": [
                    29.145493932717027,
                    1.0663781166227992
                ]
            }
        },
        {
            "type": "Feature",
            "properties": {
                "site_id": "IPIS-35697",
                "site_name": "Site IPIS-35697",
                "commodity": "Wolframite",
                "impact_type": "Child Labor",
                "impact_score": 3,
                "armed_group": "Mai-Mai",
                "latitude": 1.3545114633189828,
                "longitude": 29.34063470246402,
                "year": 2010,
                "source": "IPIS",
                "distance_to_boundary_km": 42.41,
                "is_inside": false
            },
            "geometry": {
                "type": "Point",
                "coordinates": [
                    29.34063470246402,
                    1.3545114633189828
                ]
            }
        },
        {
            "type": "Feature",
            "properties": {
                "site_id": "IPIS-56408",
                "site_name": "Site IPIS-56408",
                "commodity": "Gold",
                "impact_type": "Mercury Pollution",
                "impact_score": 1,
                "armed_group": "ADF",
                "latitude": 1.0277909422807203,
                "longitude": 29.178881310439532,
                "year": 2012,
                "source": "IPIS",
                "distance_to_boundary_km": 3.88,
                "is_inside": true
            },
            "geometry": {
                "type": "Point",
                "coordinates": [
                    29.178881310439532,
                    1.0277909422807203
                ]
            }
        },
        {
            "type": "Feature",
            "properties": {
                "site_id": "IPIS-17014",
                "site_name": "Site IPIS-17014",
                "commodity": "Wolframite",
                "impact_type": "Deforestation",
                "impact_score": 2,
                "armed_group": "None",
                "latitude": 2.6408431178481613,
                "longitude": 28.416236089773726,
                "year": 2009,
                "source": "IPIS",
                "distance_to_boundary_km": 48.82,
                "is_inside": false
            },
            "geometry": {
                "type": "Point",
                "coordinates": [
                    28.416236089773726,
                    2.6408431178481613
                ]
            }
        },
        {
            "type": "Feature",
            "properties": {
                "site_id": "IPIS-66249",
                "site_name": "Site IPIS-66249",
                "commodity": "Diamond",
                "impact_type": "Mercury Pollution",
                "impact_score": 8,
                "armed_group": "Local Militia",
                "latitude": 1.1968083600268427,
                "longitude": 29.085311462035705,
                "year": 2017,
                "source": "IPIS",
                "distance_to_boundary_km": 25.33,
                "is_inside": true
            },
            "geometry": {
                "type": "Point",
                "coordinates": [
                    29.085311462035705,
                    1.1968083600268427
                ]
            }
        },
        {
            "type": "Feature",
            "properties": {
                "site_id": "IPIS-96899",
                "site_name": "Site IPIS-96899",
                "commodity": "Cassiterite",
                "impact_type": "Deforestation",
                "impact_score": 1,
                "armed_group": "Local Militia",
                "latitude": 1.1662522140484142,
                "longitude": 29.13183872633913,
                "year": 2019,
                "source": "IPIS",
                "distance_to_boundary_km": 19.98,
                "is_inside": true
            },
            "geometry": {
                "type": "Point",
                "coordinates": [
                    29.13183872633913,
                    1.1662522140484142
                ]
            }
        },
        {
            "type": "Feature",
            "properties": {
                "site_id": "IPIS-14436",
                "site_name": "Site IPIS-14436",
                "commodity": "Coltan",
                "impact_type": "Mercury Pollution",
                "impact_score": 2,
                "armed_group": "None",
                "latitude": 1.153992205792876,
                "longitude": 28.28323624020109,
                "year": 2001,
                "source": "IPIS",
                "distance_to_boundary_km": 35.84,
                "is_inside": true
            },
            "geometry": {
                "type": "Point",
                "coordinates": [
                    28.28323624020109,
                    1.153992205792876
                ]
            }
        },
        {
            "type": "Feature",
            "properties": {
                "site_id": "IPIS-41882",
                "site_name": "Site IPIS-41882",
                "commodity": "Diamond",
                "impact_type": "Child Labor",
                "impact_score": 2,
                "armed_group": "None",
                "latitude": 1.1143145508261387,
                "longitude": 28.843633429914327,
                "year": 2017,
                "source": "IPIS",
                "distance_to_boundary_km": 41.61,
                "is_inside": true
            },
            "geometry": {
                "type": "Point",
                "coordinates": [
                    28.843633429914327,
                    1.1143145508261387
                ]
            }
        },
        {
            "type": "Feature",
            "properties": {
                "site_id": "IPIS-10784",
                "site_name": "Site IPIS-10784",
                "commodity": "Gold",
                "impact_type": "Deforestation",
                "impact_score": 9,
                "armed_group": "Local Militia",
                "latitude": 0.9373344162824551,
                "longitude": 28.942192080898508,
                "year": 2021,
                "source": "IPIS",
                "distance_to_boundary_km": 29.5,
                "is_inside": false
            },
            "geometry": {
                "type": "Point",
                "coordinates": [
                    28.942192080898508,
                    0.9373344162824551
                ]
            }
        },
        {
            "type": "Feature",
            "properties": {
                "site_id": "IPIS-40830",
                "site_name": "Site IPIS-40830",
                "commodity": "Cassiterite",
                "impact_type": "Child Labor",
                "impact_score": 4,
                "armed_group": "Mai-Mai",
                "latitude": 2.3487724640500947,
                "longitude": 28.897217516096248,
                "year": 2022,
                "source": "IPIS",
                "distance_to_boundary_km": 37.61,
                "is_inside": true
            },
            "geometry": {
                "type": "Point",
                "coordinates": [
                    28.897217516096248,
                    2.3487724640500947
                ]
            }
        },
        {
            "type": "Feature",
            "properties": {
                "site_id": "IPIS-62676",
                "site_name": "Site IPIS-62676",
                "commodity": "Wolframite",
                "impact_type": "Deforestation",
                "impact_score": 6,
                "armed_group": "None",
                "latitude": 1.0947289242322435,
                "longitude": 27.84933002615725,
                "year": 2011,
                "source": "IPIS",
                "distance_to_boundary_km": 19.79,
                "is_inside": false
            },
            "geometry": {
                "type": "Point",
                "coordinates": [
                    27.84933002615725,
                    1.0947289242322435
                ]
            }
        },
        {
            "type": "Feature",
            "properties": {
                "site_id": "IPIS-29964",
                "site_name": "Site IPIS-29964",
                "commodity": "Wolframite",
                "impact_type": "Armed Presence",
                "impact_score": 8,
                "armed_group": "ADF",
                "latitude": 2.1408187621284984,
                "longitude": 27.95824334604165,
                "year": 2016,
                "source": "IPIS",
                "distance_to_boundary_km": 40.21,
                "is_inside": false
            },
            "geometry": {
                "type": "Point",
                "coordinates": [
                    27.95824334604165,
                    2.1408187621284984
                ]
            }
        },
        {
            "type": "Feature",
            "properties": {
                "site_id": "IPIS-96287",
                "site_name": "Site IPIS-96287",
                "commodity": "Gold",
                "impact_type": "Armed Presence",
                "impact_score": 7,
                "armed_group": "None",
                "latitude": 0.8300870275625756,
                "longitude": 29.29362922023731,
                "year": 2015,
                "source": "IPIS",
                "distance_to_boundary_km": 21.57,
                "is_inside": false
            },
            "geometry": {
                "type": "Point",
                "coordinates": [
                    29.29362922023731,
                    0.8300870275625756
                ]
            }
        },
        {
            "type": "Feature",
            "properties": {
                "site_id": "IPIS-97329",
                "site_name": "Site IPIS-97329",
                "commodity": "Coltan",
                "impact_type": "Armed Presence",
                "impact_score": 10,
                "armed_group": "ADF",
                "latitude": 2.4163752321795844,
                "longitude": 29.004861421343968,
                "year": 2008,
                "source": "IPIS",
                "distance_to_boundary_km": 23.59,
                "is_inside": true
            },
            "geometry": {
                "type": "Point",
                "coordinates": [
                    29.004861421343968,
                    2.4163752321795844
                ]
            }
        },
        {
            "type": "Feature",
            "properties": {
                "site_id": "IPIS-38646",
                "site_name": "Site IPIS-38646",
                "commodity": "Wolframite",
                "impact_type": "Mercury Pollution",
                "impact_score": 3,
                "armed_group": "ADF",
                "latitude": 1.431121940529653,
                "longitude": 29.304695761560247,
                "year": 2006,
                "source": "IPIS",
                "distance_to_boundary_km": 49.33,
                "is_inside": false
            },
            "geometry": {
                "type": "Point",
                "coordinates": [
                    29.304695761560247,
                    1.431121940529653
                ]
            }
        },
        {
            "type": "Feature",
            "properties": {
                "site_id": "IPIS-59213",
                "site_name": "Site IPIS-59213",
                "commodity": "Cassiterite",
                "impact_type": "Deforestation",
                "impact_score": 9,
                "armed_group": "Local Militia",
                "latitude": 1.2265711545352072,
                "longitude": 29.239921066487096,
                "year": 2019,
                "source": "IPIS",
                "distance_to_boundary_km": 25.58,
                "is_inside": false
            },
            "geometry": {
                "type": "Point",
                "coordinates": [
                    29.239921066487096,
                    1.2265711545352072
                ]
            }
        },
        {
            "type": "Feature",
            "properties": {
                "site_id": "IPIS-55474",
                "site_name": "Site IPIS-55474",
                "commodity": "Gold",
                "impact_type": "Armed Presence",
                "impact_score": 6,
                "armed_group": "None",
                "latitude": 2.6288744780080973,
                "longitude": 27.91740076879281,
                "year": 2013,
                "source": "IPIS",
                "distance_to_boundary_km": 17.02,
                "is_inside": false
            },
            "geometry": {
                "type": "Point",
                "coordinates": [
                    27.91740076879281,
                    2.6288744780080973
                ]
            }
        },
        {
            "type": "Feature",
            "properties": {
                "site_id": "IPIS-90740",
                "site_name": "Site IPIS-90740",
                "commodity": "Diamond",
                "impact_type": "Child Labor",
                "impact_score": 8,
                "armed_group": "Mai-Mai",
                "latitude": 2.439268091373277,
                "longitude": 28.35557583692858,
                "year": 2019,
                "source": "IPIS",
                "distance_to_boundary_km": 40.07,
                "is_inside": true
            },
            "geometry": {
                "type": "Point",
                "coordinates": [
                    28.35557583692858,
                    2.439268091373277
                ]
            }
        },
        {
            "type": "Feature",
            "properties": {
                "site_id": "IPIS-72572",
                "site_name": "Site IPIS-72572",
                "commodity": "Wolframite",
                "impact_type": "Mercury Pollution",
                "impact_score": 1,
                "armed_group": "Mai-Mai",
                "latitude": 0.8089007452137482,
                "longitude": 28.912846302039995,
                "year": 2004,
                "source": "IPIS",
                "distance_to_boundary_km": 38.35,
                "is_inside": false
            },
            "geometry": {
                "type": "Point",
                "coordinates": [
                    28.912846302039995,
                    0.8089007452137482
                ]
            }
        },
        {
            "type": "Feature",
            "properties": {
                "site_id": "IPIS-56132",
                "site_name": "Site IPIS-56132",
                "commodity": "Gold",
                "impact_type": "Deforestation",
                "impact_score": 7,
                "armed_group": "Mai-Mai",
                "latitude": 2.5015647610632508,
                "longitude": 28.28072057962932,
                "year": 2010,
                "source": "IPIS",
                "distance_to_boundary_km": 31.19,
                "is_inside": false
            },
            "geometry": {
                "type": "Point",
                "coordinates": [
                    28.28072057962932,
                    2.5015647610632508
                ]
            }
        },
        {
            "type": "Feature",
            "properties": {
                "site_id": "IPIS-60591",
                "site_name": "Site IPIS-60591",
                "commodity": "Coltan",
                "impact_type": "Child Labor",
                "impact_score": 6,
                "armed_group": "Mai-Mai",
                "latitude": 2.2654510839848463,
                "longitude": 28.259280765424613,
                "year": 2003,
                "source": "IPIS",
                "distance_to_boundary_km": 38.86,
                "is_inside": true
            },
            "geometry": {
                "type": "Point",
                "coordinates": [
                    28.259280765424613,
                    2.2654510839848463
                ]
            }
        },
        {
            "type": "Feature",
            "properties": {
                "site_id": "IPIS-74695",
                "site_name": "Site IPIS-74695",
                "commodity": "Diamond",
                "impact_type": "Mercury Pollution",
                "impact_score": 2,
                "armed_group": "Mai-Mai",
                "latitude": 2.6942019222950875,
                "longitude": 29.203697713977927,
                "year": 2024,
                "source": "IPIS",
                "distance_to_boundary_km": 21.6,
                "is_inside": false
            },
            "geometry": {
                "type": "Point",
                "coordinates": [
                    29.203697713977927,
                    2.6942019222950875
                ]
            }
        },
        {
            "type": "Feature",
            "properties": {
                "site_id": "IPIS-86074",
                "site_name": "Site IPIS-86074",
                "commodity": "Gold",
                "impact_type": "Deforestation",
                "impact_score": 4,
                "armed_group": "Local Militia",
                "latitude": 2.6655997967392073,
                "longitude": 28.88267099216515,
                "year": 2023,
                "source": "IPIS",
                "distance_to_boundary_km": 39.77,
                "is_inside": false
            },
            "geometry": {
                "type": "Point",
                "coordinates": [
                    28.88267099216515,
                    2.6655997967392073
                ]
            }
        },
        {
            "type": "Feature",
            "properties": {
                "site_id": "IPIS-93328",
                "site_name": "Site IPIS-93328",
                "commodity": "Diamond",
                "impact_type": "Deforestation",
                "impact_score": 2,
                "armed_group": "Mai-Mai",
                "latitude": 1.303366423330516,
                "longitude": 29.36070759620291,
                "year": 2003,
                "source": "IPIS",
                "distance_to_boundary_km": 38.17,
                "is_inside": false
            },
            "geometry": {
                "type": "Point",
                "coordinates": [
                    29.36070759620291,
                    1.303366423330516
                ]
            }
        },
        {
            "type": "Feature",
            "properties": {
                "site_id": "IPIS-87140",
                "site_name": "Site IPIS-87140",
                "commodity": "Cassiterite",
                "impact_type": "Armed Presence",
                "impact_score": 6,
                "armed_group": "None",
                "latitude": 1.306019030430837,
                "longitude": 29.255152724961516,
                "year": 2001,
                "source": "IPIS",
                "distance_to_boundary_km": 34.58,
                "is_inside": false
            },
            "geometry": {
                "type": "Point",
                "coordinates": [
                    29.255152724961516,
                    1.306019030430837
                ]
            }
        },
        {
            "type": "Feature",
            "properties": {
                "site_id": "IPIS-97856",
                "site_name": "Site IPIS-97856",
                "commodity": "Cassiterite",
                "impact_type": "Armed Presence",
                "impact_score": 2,
                "armed_group": "ADF",
                "latitude": 1.062877410086508,
                "longitude": 28.413040180093706,
                "year": 2024,
                "source": "IPIS",
                "distance_to_boundary_km": 46.45,
                "is_inside": true
            },
            "geometry": {
                "type": "Point",
                "coordinates": [
                    28.413040180093706,
                    1.062877410086508
                ]
            }
        },
        {
            "type": "Feature",
            "properties": {
                "site_id": "IPIS-76009",
                "site_name": "Site IPIS-76009",
                "commodity": "Gold",
                "impact_type": "Child Labor",
                "impact_score": 4,
                "armed_group": "Mai-Mai",
                "latitude": 2.6721598228280863,
                "longitude": 29.074600202032702,
                "year": 2000,
                "source": "IPIS",
                "distance_to_boundary_km": 23.67,
                "is_inside": false
            },
            "geometry": {
                "type": "Point",
                "coordinates": [
                    29.074600202032702,
                    2.6721598228280863
                ]
            }
        },
        {
            "type": "Feature",
            "properties": {
                "site_id": "IPIS-93410",
                "site_name": "Site IPIS-93410",
                "commodity": "Gold",
                "impact_type": "Child Labor",
                "impact_score": 5,
                "armed_group": "None",
                "latitude": 2.1260077457849054,
                "longitude": 29.389661406647143,
                "year": 2025,
                "source": "IPIS",
                "distance_to_boundary_km": 46.62,
                "is_inside": false
            },
            "geometry": {
                "type": "Point",
                "coordinates": [
                    29.389661406647143,
                    2.1260077457849054
                ]
            }
        },
        {
            "type": "Feature",
            "properties": {
                "site_id": "IPIS-13421",
                "site_name": "Site IPIS-13421",
                "commodity": "Cassiterite",
                "impact_type": "Child Labor",
                "impact_score": 9,
                "armed_group": "Local Militia",
                "latitude": 2.617739571812683,
                "longitude": 28.94070999290187,
                "year": 2002,
                "source": "IPIS",
                "distance_to_boundary_km": 31.64,
                "is_inside": false
            },
            "geometry": {
                "type": "Point",
                "coordinates": [
                    28.94070999290187,
                    2.617739571812683
                ]
            }
        },
        {
            "type": "Feature",
            "properties": {
                "site_id": "IPIS-55159",
                "site_name": "Site IPIS-55159",
                "commodity": "Gold",
                "impact_type": "Deforestation",
                "impact_score": 9,
                "armed_group": "Local Militia",
                "latitude": 1.2301144298271778,
                "longitude": 28.98345446231662,
                "year": 2017,
                "source": "IPIS",
                "distance_to_boundary_km": 35.13,
                "is_inside": true
            },
            "geometry": {
                "type": "Point",
                "coordinates": [
                    28.98345446231662,
                    1.2301144298271778
                ]
            }
        },
        {
            "type": "Feature",
            "properties": {
                "site_id": "IPIS-95137",
                "site_name": "Site IPIS-95137",
                "commodity": "Wolframite",
                "impact_type": "Mercury Pollution",
                "impact_score": 2,
                "armed_group": "None",
                "latitude": 1.1434413441725706,
                "longitude": 28.898947240154204,
                "year": 2021,
                "source": "IPIS",
                "distance_to_boundary_km": 37.08,
                "is_inside": true
            },
            "geometry": {
                "type": "Point",
                "coordinates": [
                    28.898947240154204,
                    1.1434413441725706
                ]
            }
        },
        {
            "type": "Feature",
            "properties": {
                "site_id": "IPIS-45004",
                "site_name": "Site IPIS-45004",
                "commodity": "Wolframite",
                "impact_type": "Deforestation",
                "impact_score": 10,
                "armed_group": "Local Militia",
                "latitude": 2.2572888691793063,
                "longitude": 29.139868054139377,
                "year": 2026,
                "source": "IPIS",
                "distance_to_boundary_km": 27.8,
                "is_inside": true
            },
            "geometry": {
                "type": "Point",
                "coordinates": [
                    29.139868054139377,
                    2.2572888691793063
                ]
            }
        },
        {
            "type": "Feature",
            "properties": {
                "site_id": "IPIS-32245",
                "site_name": "Site IPIS-32245",
                "commodity": "Coltan",
                "impact_type": "Mercury Pollution",
                "impact_score": 5,
                "armed_group": "Mai-Mai",
                "latitude": 2.549890913640505,
                "longitude": 27.9335479996058,
                "year": 2026,
                "source": "IPIS",
                "distance_to_boundary_km": 9.23,
                "is_inside": false
            },
            "geometry": {
                "type": "Point",
                "coordinates": [
                    27.9335479996058,
                    2.549890913640505
                ]
            }
        },
        {
            "type": "Feature",
            "properties": {
                "site_id": "IPIS-54893",
                "site_name": "Site IPIS-54893",
                "commodity": "Coltan",
                "impact_type": "Child Labor",
                "impact_score": 3,
                "armed_group": "None",
                "latitude": 2.5824341290648247,
                "longitude": 28.258166318536816,
                "year": 2002,
                "source": "IPIS",
                "distance_to_boundary_km": 30.11,
                "is_inside": false
            },
            "geometry": {
                "type": "Point",
                "coordinates": [
                    28.258166318536816,
                    2.5824341290648247
                ]
            }
        },
        {
            "type": "Feature",
            "properties": {
                "site_id": "IPIS-21451",
                "site_name": "Site IPIS-21451",
                "commodity": "Diamond",
                "impact_type": "Mercury Pollution",
                "impact_score": 8,
                "armed_group": "Mai-Mai",
                "latitude": 1.2553685458176878,
                "longitude": 28.947194722020043,
                "year": 2008,
                "source": "IPIS",
                "distance_to_boundary_km": 39.95,
                "is_inside": true
            },
            "geometry": {
                "type": "Point",
                "coordinates": [
                    28.947194722020043,
                    1.2553685458176878
                ]
            }
        },
        {
            "type": "Feature",
            "properties": {
                "site_id": "IPIS-84876",
                "site_name": "Site IPIS-84876",
                "commodity": "Coltan",
                "impact_type": "Armed Presence",
                "impact_score": 3,
                "armed_group": "Mai-Mai",
                "latitude": 2.387367234715268,
                "longitude": 29.18198040136012,
                "year": 2020,
                "source": "IPIS",
                "distance_to_boundary_km": 12.68,
                "is_inside": true
            },
            "geometry": {
                "type": "Point",
                "coordinates": [
                    29.18198040136012,
                    2.387367234715268
                ]
            }
        },
        {
            "type": "Feature",
            "properties": {
                "site_id": "IPIS-17042",
                "site_name": "Site IPIS-17042",
                "commodity": "Cassiterite",
                "impact_type": "Armed Presence",
                "impact_score": 1,
                "armed_group": "None",
                "latitude": 2.2702529893583057,
                "longitude": 29.009510938966024,
                "year": 2012,
                "source": "IPIS",
                "distance_to_boundary_km": 33.17,
                "is_inside": true
            },
            "geometry": {
                "type": "Point",
                "coordinates": [
                    29.009510938966024,
                    2.2702529893583057
                ]
            }
        },
        {
            "type": "Feature",
            "properties": {
                "site_id": "IPIS-69658",
                "site_name": "Site IPIS-69658",
                "commodity": "Wolframite",
                "impact_type": "Child Labor",
                "impact_score": 3,
                "armed_group": "None",
                "latitude": 2.3581316773266905,
                "longitude": 29.139646704031932,
                "year": 2003,
                "source": "IPIS",
                "distance_to_boundary_km": 17.14,
                "is_inside": true
            },
            "geometry": {
                "type": "Point",
                "coordinates": [
                    29.139646704031932,
                    2.3581316773266905
                ]
            }
        },
        {
            "type": "Feature",
            "properties": {
                "site_id": "IPIS-40615",
                "site_name": "Site IPIS-40615",
                "commodity": "Gold",
                "impact_type": "Mercury Pollution",
                "impact_score": 2,
                "armed_group": "Local Militia",
                "latitude": 0.9652274739215904,
                "longitude": 28.303888475957113,
                "year": 2006,
                "source": "IPIS",
                "distance_to_boundary_km": 34.01,
                "is_inside": false
            },
            "geometry": {
                "type": "Point",
                "coordinates": [
                    28.303888475957113,
                    0.9652274739215904
                ]
            }
        },
        {
            "type": "Feature",
            "properties": {
                "site_id": "IPIS-70305",
                "site_name": "Site IPIS-70305",
                "commodity": "Cassiterite",
                "impact_type": "Child Labor",
                "impact_score": 9,
                "armed_group": "ADF",
                "latitude": 2.4257271897364783,
                "longitude": 29.322828246674312,
                "year": 2006,
                "source": "IPIS",
                "distance_to_boundary_km": 15.95,
                "is_inside": false
            },
            "geometry": {
                "type": "Point",
                "coordinates": [
                    29.322828246674312,
                    2.4257271897364783
                ]
            }
        },
        {
            "type": "Feature",
            "properties": {
                "site_id": "IPIS-76727",
                "site_name": "Site IPIS-76727",
                "commodity": "Coltan",
                "impact_type": "Child Labor",
                "impact_score": 1,
                "armed_group": "ADF",
                "latitude": 2.628308017735278,
                "longitude": 28.20284144044799,
                "year": 2025,
                "source": "IPIS",
                "distance_to_boundary_km": 26.67,
                "is_inside": false
            },
            "geometry": {
                "type": "Point",
                "coordinates": [
                    28.20284144044799,
                    2.628308017735278
                ]
            }
        },
        {
            "type": "Feature",
            "properties": {
                "site_id": "IPIS-27226",
                "site_name": "Site IPIS-27226",
                "commodity": "Wolframite",
                "impact_type": "Deforestation",
                "impact_score": 9,
                "armed_group": "ADF",
                "latitude": 1.235095043653404,
                "longitude": 28.919669416512594,
                "year": 2026,
                "source": "IPIS",
                "distance_to_boundary_km": 40.68,
                "is_inside": true
            },
            "geometry": {
                "type": "Point",
                "coordinates": [
                    28.919669416512594,
                    1.235095043653404
                ]
            }
        },
        {
            "type": "Feature",
            "properties": {
                "site_id": "IPIS-27229",
                "site_name": "Site IPIS-27229",
                "commodity": "Diamond",
                "impact_type": "Mercury Pollution",
                "impact_score": 2,
                "armed_group": "None",
                "latitude": 1.2759893920519327,
                "longitude": 29.161879880735988,
                "year": 2018,
                "source": "IPIS",
                "distance_to_boundary_km": 30.98,
                "is_inside": true
            },
            "geometry": {
                "type": "Point",
                "coordinates": [
                    29.161879880735988,
                    1.2759893920519327
                ]
            }
        }
    ]
}